{
"type": "FeatureCollection",
"name": "mtr_voronoi_complete_osmnx",
"crs": { "type": "name", "properties": { "name": "urn:ogc:def:crs:OGC:1.3:CRS84" } },
"features": [
{ "type": "Feature", "properties": { "Station code": "CEN", "Station number": 1, "Station name": "Central", "Lat": 22.28228, "Lng": 114.1588 }, "geometry": { "type": "Polygon", "coordinates": [ [ [ 114.164250042528735, 22.284478846743294 ], [ 114.151739155654383, 22.263110389822884 ], [ 114.14707833468313, 22.264281509813124 ], [ 114.148981509554133, 22.274265377988929 ], [ 114.154599307316488, 22.283080189466158 ], [ 114.164250042528735, 22.284478846743294 ] ] ] } },
{ "type": "Feature", "properties": { "Station code": "ADM", "Station number": 2, "Station name": "Admiralty", "Lat": 22.27865, "Lng": 114.165 }, "geometry": { "type": "Polygon", "coordinates": [ [ [ 114.167230699928268, 22.263554573682082 ], [ 114.153928123683642, 22.26219493021495 ], [ 114.153576796303355, 22.262283271722563 ], [ 114.151739155654383, 22.263110389822884 ], [ 114.164250042528735, 22.284478846743294 ], [ 114.167379814621412, 22.287711475195824 ], [ 114.170069391121785, 22.286320314937011 ], [ 114.167230699928268, 22.263554573682082 ] ] ] } },
{ "type": "Feature", "properties": { "Station code": "TST", "Station number": 3, "Station name": "Tsim Sha Tsui", "Lat": 22.29783, "Lng": 114.1722 }, "geometry": { "type": "Polygon", "coordinates": [ [ [ 114.176207041434395, 22.301716451353371 ], [ 114.178140388468975, 22.298539750395495 ], [ 114.164046730954936, 22.292787237124472 ], [ 114.162640132495085, 22.294304911772318 ], [ 114.163742937363651, 22.296092792392574 ], [ 114.169657990244033, 22.301260389292761 ], [ 114.176207041434395, 22.301716451353371 ] ] ] } },
{ "type": "Feature", "properties": { "Station code": "JOR", "Station number": 4, "Station name": "Jordan", "Lat": 22.30501, "Lng": 114.1717 }, "geometry": { "type": "Polygon", "coordinates": [ [ [ 114.176142284643689, 22.309855311826741 ], [ 114.177097976699812, 22.307460639248767 ], [ 114.176207041434395, 22.301716451353371 ], [ 114.169657990244033, 22.301260389292761 ], [ 114.168511554548587, 22.30885366467821 ], [ 114.176142284643689, 22.309855311826741 ] ] ] } },
{ "type": "Feature", "properties": { "Station code": "YMT", "Station number": 5, "Station name": "Yau Ma Tei", "Lat": 22.31339, "Lng": 114.1706 }, "geometry": { "type": "Polygon", "coordinates": [ [ [ 114.164287142435427, 22.310700402214014 ], [ 114.163601339341852, 22.311396920980926 ], [ 114.165475311179776, 22.315786404565234 ], [ 114.173107784095578, 22.317485026134026 ], [ 114.178274073638192, 22.316320135594538 ], [ 114.176142284643689, 22.309855311826741 ], [ 114.168511554548587, 22.30885366467821 ], [ 114.164287142435427, 22.310700402214014 ] ] ] } },
{ "type": "Feature", "properties": { "Station code": "MOK", "Station number": 6, "Station name": "Mong Kok", "Lat": 22.32013, "Lng": 114.1691 }, "geometry": { "type": "Polygon", "coordinates": [ [ [ 114.16985313709678, 22.322833037634407 ], [ 114.173107784095578, 22.317485026134026 ], [ 114.165475311179776, 22.315786404565234 ], [ 114.163898530066817, 22.321887861915368 ], [ 114.16985313709678, 22.322833037634407 ] ] ] } },
{ "type": "Feature", "properties": { "Station code": "SKM", "Station number": 7, "Station name": "Shek Kip Mei", "Lat": 22.33181, "Lng": 114.1688 }, "geometry": { "type": "Polygon", "coordinates": [ [ [ 114.164328074955264, 22.339885336334163 ], [ 114.166235239208746, 22.346380003791943 ], [ 114.176082607269947, 22.329176770432021 ], [ 114.173432636051587, 22.32812233162262 ], [ 114.165930259889919, 22.328687269586602 ], [ 114.164328074955264, 22.339885336334163 ] ] ] } },
{ "type": "Feature", "properties": { "Station code": "KOT", "Station number": 8, "Station name": "Kowloon Tong", "Lat": 22.33679, "Lng": 114.1775 }, "geometry": { "type": "Polygon", "coordinates": [ [ [ 114.166235239208746, 22.346380003791943 ], [ 114.166115263182292, 22.348376479857091 ], [ 114.180219086983897, 22.351858263920121 ], [ 114.183784743833144, 22.326579353421725 ], [ 114.176082607269947, 22.329176770432021 ], [ 114.166235239208746, 22.346380003791943 ] ] ] } },
{ "type": "Feature", "properties": { "Station code": "LOF", "Station number": 9, "Station name": "Lok Fu", "Lat": 22.33813, "Lng": 114.187 }, "geometry": { "type": "Polygon", "coordinates": [ [ [ 114.186951987175561, 22.323705484226334 ], [ 114.183784743833144, 22.326579353421725 ], [ 114.180219086983897, 22.351858263920121 ], [ 114.182786336112386, 22.353470257558943 ], [ 114.193195503876822, 22.334381812374872 ], [ 114.186951987175561, 22.323705484226334 ] ] ] } },
{ "type": "Feature", "properties": { "Station code": "WTS", "Station number": 10, "Station name": "Wong Tai Sin", "Lat": 22.34162, "Lng": 114.1934 }, "geometry": { "type": "Polygon", "coordinates": [ [ [ 114.193195503876822, 22.334381812374872 ], [ 114.182786336112386, 22.353470257558943 ], [ 114.18684091695043, 22.357577542495726 ], [ 114.194672544541817, 22.359323672178647 ], [ 114.200800865872822, 22.359047076575557 ], [ 114.196815305782707, 22.336426330118005 ], [ 114.193195503876822, 22.334381812374872 ] ] ] } },
{ "type": "Feature", "properties": { "Station code": "DIH", "Station number": 11, "Station name": "Diamond Hill", "Lat": 22.34014, "Lng": 114.2018 }, "geometry": { "type": "Polygon", "coordinates": [ [ [ 114.200800865872822, 22.359047076575557 ], [ 114.212129084586564, 22.361132965751121 ], [ 114.224162639072759, 22.360654326475817 ], [ 114.203828339277678, 22.334695645886409 ], [ 114.196815305782707, 22.336426330118005 ], [ 114.200800865872822, 22.359047076575557 ] ] ] } },
{ "type": "Feature", "properties": { "Station code": "CHH", "Station number": 12, "Station name": "Choi Hung", "Lat": 22.33403, "Lng": 114.2096 }, "geometry": { "type": "Polygon", "coordinates": [ [ [ 114.224162639072759, 22.360654326475817 ], [ 114.230099829517044, 22.361395715661281 ], [ 114.241646280991674, 22.361653305208961 ], [ 114.236235504740563, 22.338935586105862 ], [ 114.206460606986894, 22.326413432844952 ], [ 114.203828339277678, 22.334695645886409 ], [ 114.224162639072759, 22.360654326475817 ] ] ] } },
{ "type": "Feature", "properties": { "Station code": "KOB", "Station number": 13, "Station name": "Kowloon Bay", "Lat": 22.32333, "Lng": 114.2141 }, "geometry": { "type": "Polygon", "coordinates": [ [ [ 114.204198732088145, 22.311104019559998 ], [ 114.200899179684058, 22.315572733429544 ], [ 114.206460606986894, 22.326413432844952 ], [ 114.236235504740563, 22.338935586105862 ], [ 114.236172070511188, 22.33538164274168 ], [ 114.231261430946986, 22.329949910130203 ], [ 114.204198732088145, 22.311104019559998 ] ] ] } },
{ "type": "Feature", "properties": { "Station code": "NTK", "Station number": 14, "Station name": "Ngau Tau Kok", "Lat": 22.31615, "Lng": 114.2191 }, "geometry": { "type": "Polygon", "coordinates": [ [ [ 114.205918940034167, 22.306452678184417 ], [ 114.204198732088145, 22.311104019559998 ], [ 114.231261430946986, 22.329949910130203 ], [ 114.215906028962451, 22.301499546047182 ], [ 114.209617286261803, 22.303771230642194 ], [ 114.205918940034167, 22.306452678184417 ] ] ] } },
{ "type": "Feature", "properties": { "Station code": "KWT", "Station number": 15, "Station name": "Kwun Tong", "Lat": 22.31221, "Lng": 114.2264 }, "geometry": { "type": "Polygon", "coordinates": [ [ [ 114.236172070511188, 22.33538164274168 ], [ 114.240351069468375, 22.322691065637635 ], [ 114.220628757424279, 22.298648628098167 ], [ 114.219058472315197, 22.299215927631796 ], [ 114.215906028962451, 22.301499546047182 ], [ 114.231261430946986, 22.329949910130203 ], [ 114.236172070511188, 22.33538164274168 ] ] ] } },
{ "type": "Feature", "properties": { "Station code": "PRE", "Station number": 16, "Station name": "Prince Edward", "Lat": 22.32517, "Lng": 114.1683 }, "geometry": { "type": "Polygon", "coordinates": [ [ [ 114.161733360633946, 22.324277217829021 ], [ 114.165930259889919, 22.328687269586602 ], [ 114.173432636051587, 22.32812233162262 ], [ 114.16985313709678, 22.322833037634407 ], [ 114.163898530066817, 22.321887861915368 ], [ 114.161733360633946, 22.324277217829021 ] ] ] } },
{ "type": "Feature", "properties": { "Station code": "SSP", "Station number": 17, "Station name": "Sham Shui Po", "Lat": 22.33088, "Lng": 114.1623 }, "geometry": { "type": "Polygon", "coordinates": [ [ [ 114.160066929442635, 22.324545379170154 ], [ 114.157067206755784, 22.330319181686882 ], [ 114.164328074955264, 22.339885336334163 ], [ 114.165930259889919, 22.328687269586602 ], [ 114.161733360633946, 22.324277217829021 ], [ 114.160066929442635, 22.324545379170154 ] ] ] } },
{ "type": "Feature", "properties": { "Station code": "CSW", "Station number": 18, "Station name": "Cheung Sha Wan", "Lat": 22.33551, "Lng": 114.1562 }, "geometry": { "type": "Polygon", "coordinates": [ [ [ 114.164328074955264, 22.339885336334163 ], [ 114.157067206755784, 22.330319181686882 ], [ 114.151438544652123, 22.331918582940382 ], [ 114.155539614880183, 22.353809430779354 ], [ 114.166115263182292, 22.348376479857091 ], [ 114.166235239208746, 22.346380003791943 ], [ 114.164328074955264, 22.339885336334163 ] ] ] } },
{ "type": "Feature", "properties": { "Station code": "LCK", "Station number": 19, "Station name": "Lai Chi Kok", "Lat": 22.33699, "Lng": 114.1483 }, "geometry": { "type": "Polygon", "coordinates": [ [ [ 114.144058763011444, 22.352890431696434 ], [ 114.151117488318718, 22.357502743609093 ], [ 114.155539614880183, 22.353809430779354 ], [ 114.151438544652123, 22.331918582940382 ], [ 114.142579808670959, 22.327501715517982 ], [ 114.144058763011444, 22.352890431696434 ] ] ] } },
{ "type": "Feature", "properties": { "Station code": "MEF", "Station number": 20, "Station name": "Mei Foo", "Lat": 22.33759, "Lng": 114.138 }, "geometry": { "type": "Polygon", "coordinates": [ [ [ 114.120696286645668, 22.311533634273196 ], [ 114.105348966914946, 22.314016931029055 ], [ 114.138910762221229, 22.350416672262003 ], [ 114.143118235409844, 22.352640310942 ], [ 114.144058763011444, 22.352890431696434 ], [ 114.142579808670959, 22.327501715517982 ], [ 114.130747422281118, 22.311064918752045 ], [ 114.120696286645668, 22.311533634273196 ] ] ] } },
{ "type": "Feature", "properties": { "Station code": "LAK", "Station number": 21, "Station name": "Lai King", "Lat": 22.34847, "Lng": 114.1262 }, "geometry": { "type": "Polygon", "coordinates": [ [ [ 114.105348966914946, 22.314016931029055 ], [ 114.095873585916877, 22.313635769993674 ], [ 114.117375456909031, 22.354508891798755 ], [ 114.138910762221229, 22.350416672262003 ], [ 114.105348966914946, 22.314016931029055 ] ] ] } },
{ "type": "Feature", "properties": { "Station code": "KWF", "Station number": 22, "Station name": "Kwai Fong", "Lat": 22.35689, "Lng": 114.1278 }, "geometry": { "type": "Polygon", "coordinates": [ [ [ 114.138910762221229, 22.350416672262003 ], [ 114.117375456909031, 22.354508891798755 ], [ 114.117867539177325, 22.361337788583295 ], [ 114.118428147392734, 22.362209524725809 ], [ 114.123559717857162, 22.363246205627711 ], [ 114.143118235409844, 22.352640310942 ], [ 114.138910762221229, 22.350416672262003 ] ] ] } },
{ "type": "Feature", "properties": { "Station code": "KWH", "Station number": 23, "Station name": "Kwai Hing", "Lat": 22.36316, "Lng": 114.1312 }, "geometry": { "type": "Polygon", "coordinates": [ [ [ 114.123559717857162, 22.363246205627711 ], [ 114.150576686612865, 22.385315402766789 ], [ 114.151117488318718, 22.357502743609093 ], [ 114.144058763011444, 22.352890431696434 ], [ 114.143118235409844, 22.352640310942 ], [ 114.123559717857162, 22.363246205627711 ] ] ] } },
{ "type": "Feature", "properties": { "Station code": "TWH", "Station number": 24, "Station name": "Tai Wo Hau", "Lat": 22.37075, "Lng": 114.125 }, "geometry": { "type": "Polygon", "coordinates": [ [ [ 114.14144280283206, 22.411622708942591 ], [ 114.150413286130458, 22.406087471616388 ], [ 114.151109408787846, 22.388892921185196 ], [ 114.150576686612865, 22.385315402766789 ], [ 114.123559717857162, 22.363246205627711 ], [ 114.118428147392734, 22.362209524725809 ], [ 114.118170782959822, 22.363983252574201 ], [ 114.137640701745113, 22.413343610058011 ], [ 114.14144280283206, 22.411622708942591 ] ] ] } },
{ "type": "Feature", "properties": { "Station code": "TSW", "Station number": 25, "Station name": "Tsuen Wan", "Lat": 22.37359, "Lng": 114.1178 }, "geometry": { "type": "Polygon", "coordinates": [ [ [ 114.137640701745113, 22.413343610058011 ], [ 114.118170782959822, 22.363983252574201 ], [ 114.092203985167259, 22.405550656155171 ], [ 114.115245397287893, 22.425936626395764 ], [ 114.137640701745113, 22.413343610058011 ] ] ] } },
{ "type": "Feature", "properties": { "Station code": "SHW", "Station number": 26, "Station name": "Sheung Wan", "Lat": 22.28655, "Lng": 114.1521 }, "geometry": { "type": "Polygon", "coordinates": [ [ [ 114.148981509554133, 22.274265377988929 ], [ 114.14541180188094, 22.301477084022324 ], [ 114.157487137655906, 22.29512875313392 ], [ 114.154599307316488, 22.283080189466158 ], [ 114.148981509554133, 22.274265377988929 ] ] ] } },
{ "type": "Feature", "properties": { "Station code": "WAC", "Station number": 27, "Station name": "Wan Chai", "Lat": 22.27764, "Lng": 114.1731 }, "geometry": { "type": "Polygon", "coordinates": [ [ [ 114.177323490518972, 22.286194156686626 ], [ 114.182793153393774, 22.26367201543739 ], [ 114.170145931095945, 22.263057433305601 ], [ 114.167230699928268, 22.263554573682082 ], [ 114.170069391121785, 22.286320314937011 ], [ 114.177323490518972, 22.286194156686626 ] ] ] } },
{ "type": "Feature", "properties": { "Station code": "CAB", "Station number": 28, "Station name": "Causeway Bay", "Lat": 22.28053, "Lng": 114.185 }, "geometry": { "type": "Polygon", "coordinates": [ [ [ 114.187195038549831, 22.286353133717839 ], [ 114.193878773302401, 22.260000122407721 ], [ 114.182793153393774, 22.26367201543739 ], [ 114.177323490518972, 22.286194156686626 ], [ 114.183264721415185, 22.290993479694716 ], [ 114.187195038549831, 22.286353133717839 ] ] ] } },
{ "type": "Feature", "properties": { "Station code": "TIH", "Station number": 29, "Station name": "Tin Hau", "Lat": 22.28228, "Lng": 114.1919 }, "geometry": { "type": "Polygon", "coordinates": [ [ [ 114.205260074068846, 22.271317526805888 ], [ 114.206568032908393, 22.257075308330826 ], [ 114.206490301403434, 22.253439865637667 ], [ 114.193878773302401, 22.260000122407721 ], [ 114.187195038549831, 22.286353133717839 ], [ 114.199834136923499, 22.283001857633931 ], [ 114.201990331164325, 22.280778204245372 ], [ 114.205260074068846, 22.271317526805888 ] ] ] } },
{ "type": "Feature", "properties": { "Station code": "FOH", "Station number": 30, "Station name": "Fortress Hill", "Lat": 22.28756, "Lng": 114.1933 }, "geometry": { "type": "Polygon", "coordinates": [ [ [ 114.187195038549831, 22.286353133717839 ], [ 114.183264721415185, 22.290993479694716 ], [ 114.184008518044536, 22.293012791144104 ], [ 114.187451616081987, 22.295563234134807 ], [ 114.193644498982721, 22.29685925600883 ], [ 114.199834136923499, 22.283001857633931 ], [ 114.187195038549831, 22.286353133717839 ] ] ] } },
{ "type": "Feature", "properties": { "Station code": "NOP", "Station number": 31, "Station name": "North Point", "Lat": 22.29091, "Lng": 114.2008 }, "geometry": { "type": "Polygon", "coordinates": [ [ [ 114.199834136923499, 22.283001857633931 ], [ 114.193644498982721, 22.29685925600883 ], [ 114.205918940034167, 22.306452678184417 ], [ 114.209617286261803, 22.303771230642194 ], [ 114.201990331164325, 22.280778204245372 ], [ 114.199834136923499, 22.283001857633931 ] ] ] } },
{ "type": "Feature", "properties": { "Station code": "QUB", "Station number": 32, "Station name": "Quarry Bay", "Lat": 22.28819, "Lng": 114.209 }, "geometry": { "type": "Polygon", "coordinates": [ [ [ 114.209617286261803, 22.303771230642194 ], [ 114.215906028962451, 22.301499546047182 ], [ 114.219058472315197, 22.299215927631796 ], [ 114.205260074068846, 22.271317526805888 ], [ 114.201990331164325, 22.280778204245372 ], [ 114.209617286261803, 22.303771230642194 ] ] ] } },
{ "type": "Feature", "properties": { "Station code": "TAK", "Station number": 33, "Station name": "Tai Koo", "Lat": 22.28453, "Lng": 114.2164 }, "geometry": { "type": "Polygon", "coordinates": [ [ [ 114.205260074068846, 22.271317526805888 ], [ 114.219058472315197, 22.299215927631796 ], [ 114.220628757424279, 22.298648628098167 ], [ 114.223245888256784, 22.296735077244254 ], [ 114.224835892287473, 22.294240953274542 ], [ 114.206568032908393, 22.257075308330826 ], [ 114.205260074068846, 22.271317526805888 ] ] ] } },
{ "type": "Feature", "properties": { "Station code": "SWH", "Station number": 34, "Station name": "Sai Wan Ho", "Lat": 22.28163, "Lng": 114.2223 }, "geometry": { "type": "Polygon", "coordinates": [ [ [ 114.206568032908393, 22.257075308330826 ], [ 114.224835892287473, 22.294240953274542 ], [ 114.229342664847906, 22.290085575109302 ], [ 114.219003020780377, 22.263929953752712 ], [ 114.206583848686932, 22.253303537584287 ], [ 114.206490301403434, 22.253439865637667 ], [ 114.206568032908393, 22.257075308330826 ] ] ] } },
{ "type": "Feature", "properties": { "Station code": "SKW", "Station number": 35, "Station name": "Shau Kei Wan", "Lat": 22.2791, "Lng": 114.2287 }, "geometry": { "type": "Polygon", "coordinates": [ [ [ 114.229342664847906, 22.290085575109302 ], [ 114.23620570886429, 22.286964340537914 ], [ 114.232850280569721, 22.271775158957592 ], [ 114.219003020780377, 22.263929953752712 ], [ 114.229342664847906, 22.290085575109302 ] ] ] } },
{ "type": "Feature", "properties": { "Station code": "HFC", "Station number": 36, "Station name": "Heng Fa Chuen", "Lat": 22.27667, "Lng": 114.2397 }, "geometry": { "type": "Polygon", "coordinates": [ [ [ 114.249909990628041, 22.288586532981537 ], [ 114.253844019007602, 22.28676376171483 ], [ 114.268764147301496, 22.263840016553669 ], [ 114.232850280569721, 22.271775158957592 ], [ 114.23620570886429, 22.286964340537914 ], [ 114.249909990628041, 22.288586532981537 ] ] ] } },
{ "type": "Feature", "properties": { "Station code": "CHW", "Station number": 37, "Station name": "Chai Wan", "Lat": 22.26445, "Lng": 114.237 }, "geometry": { "type": "Polygon", "coordinates": [ [ [ 114.219003020780377, 22.263929953752712 ], [ 114.232850280569721, 22.271775158957592 ], [ 114.268764147301496, 22.263840016553669 ], [ 114.351526796797543, 22.179377492356796 ], [ 114.317943375, 22.162777998189103 ], [ 114.254711525, 22.149081388503564 ], [ 114.232288888795651, 22.150450464165921 ], [ 114.206583848686932, 22.253303537584287 ], [ 114.219003020780377, 22.263929953752712 ] ] ] } },
{ "type": "Feature", "properties": { "Station code": "LAT", "Station number": 38, "Station name": "Lam Tin", "Lat": 22.30696, "Lng": 114.2328 }, "geometry": { "type": "Polygon", "coordinates": [ [ [ 114.240351069468375, 22.322691065637635 ], [ 114.244213088408856, 22.316497962782474 ], [ 114.242679306883744, 22.30605972740333 ], [ 114.223245888256784, 22.296735077244254 ], [ 114.220628757424279, 22.298648628098167 ], [ 114.240351069468375, 22.322691065637635 ] ] ] } },
{ "type": "Feature", "properties": { "Station code": "HOK", "Station number": 39, "Station name": "Hong Kong", "Lat": 22.28504, "Lng": 114.1584 }, "geometry": { "type": "Polygon", "coordinates": [ [ [ 114.167379814621412, 22.287711475195824 ], [ 114.164250042528735, 22.284478846743294 ], [ 114.154599307316488, 22.283080189466158 ], [ 114.157487137655906, 22.29512875313392 ], [ 114.162640132495085, 22.294304911772318 ], [ 114.164046730954936, 22.292787237124472 ], [ 114.167379814621412, 22.287711475195824 ] ] ] } },
{ "type": "Feature", "properties": { "Station code": "KOW", "Station number": 40, "Station name": "Kowloon", "Lat": 22.30443, "Lng": 114.1615 }, "geometry": { "type": "Polygon", "coordinates": [ [ [ 114.163742937363651, 22.296092792392574 ], [ 114.162640132495085, 22.294304911772318 ], [ 114.157487137655906, 22.29512875313392 ], [ 114.14541180188094, 22.301477084022324 ], [ 114.138284702521119, 22.308454924756809 ], [ 114.140130688937461, 22.309119917583484 ], [ 114.163601339341852, 22.311396920980926 ], [ 114.164287142435427, 22.310700402214014 ], [ 114.163742937363651, 22.296092792392574 ] ] ] } },
{ "type": "Feature", "properties": { "Station code": "OLY", "Station number": 41, "Station name": "Olympic", "Lat": 22.31783, "Lng": 114.1602 }, "geometry": { "type": "Polygon", "coordinates": [ [ [ 114.165475311179776, 22.315786404565234 ], [ 114.163601339341852, 22.311396920980926 ], [ 114.140130688937461, 22.309119917583484 ], [ 114.160066929442635, 22.324545379170154 ], [ 114.161733360633946, 22.324277217829021 ], [ 114.163898530066817, 22.321887861915368 ], [ 114.165475311179776, 22.315786404565234 ] ] ] } },
{ "type": "Feature", "properties": { "Station code": "TSY", "Station number": 42, "Station name": "Tsing Yi", "Lat": 22.35836, "Lng": 114.1074 }, "geometry": { "type": "Polygon", "coordinates": [ [ [ 114.117375456909031, 22.354508891798755 ], [ 114.095873585916877, 22.313635769993674 ], [ 114.092855257724281, 22.312793099481521 ], [ 114.065828369442585, 22.352078567049162 ], [ 114.058180608950323, 22.374836307710378 ], [ 114.117867539177325, 22.361337788583295 ], [ 114.117375456909031, 22.354508891798755 ] ] ] } },
{ "type": "Feature", "properties": { "Station code": "TUC", "Station number": 43, "Station name": "Tung Chung", "Lat": 22.28924, "Lng": 113.9414 }, "geometry": { "type": "Polygon", "coordinates": [ [ [ 113.997637014555934, 22.285045803143554 ], [ 114.025071610934745, 22.176707355143471 ], [ 114.001784125, 22.168222922628186 ], [ 113.938552275, 22.161019138196938 ], [ 113.875320425, 22.169649108278971 ], [ 113.857631459207241, 22.176492779427768 ], [ 113.848152604150613, 22.194626775 ], [ 113.833650458188686, 22.239741682142856 ], [ 113.832184328612243, 22.251940490223671 ], [ 113.839, 22.2677222 ], [ 113.8473889, 22.2731111 ], [ 113.8499792, 22.2802937 ], [ 113.850068, 22.28054 ], [ 113.8501034, 22.2806381 ], [ 113.8501195, 22.2806826 ], [ 113.8501626, 22.280802 ], [ 113.8501837, 22.2808609 ], [ 113.8502671, 22.2810917 ], [ 113.8503489, 22.281318 ], [ 113.852439053229759, 22.287114968465374 ], [ 113.953992198836659, 22.305317175295592 ], [ 113.988142795353099, 22.304482962250919 ], [ 113.997637014555934, 22.285045803143554 ] ] ] } },
{ "type": "Feature", "properties": { "Station code": "AIR", "Station number": 47, "Station name": "Airport", "Lat": 22.31602, "Lng": 113.9366 }, "geometry": { "type": "Polygon", "coordinates": [ [ [ 113.852439053229759, 22.287114968465374 ], [ 113.8526139, 22.2875999 ], [ 113.8658735, 22.3243501 ], [ 113.8681574, 22.3306899 ], [ 113.8691126, 22.3333417 ], [ 113.8691111, 22.3743791 ], [ 113.8691111, 22.384937636515954 ], [ 113.953992198836659, 22.305317175295592 ], [ 113.852439053229759, 22.287114968465374 ] ] ] } },
{ "type": "Feature", "properties": { "Station code": "YAT", "Station number": 48, "Station name": "Yau Tong", "Lat": 22.29779, "Lng": 114.2372 }, "geometry": { "type": "Polygon", "coordinates": [ [ [ 114.224835892287473, 22.294240953274542 ], [ 114.223245888256784, 22.296735077244254 ], [ 114.242679306883744, 22.30605972740333 ], [ 114.249909990628041, 22.288586532981537 ], [ 114.23620570886429, 22.286964340537914 ], [ 114.229342664847906, 22.290085575109302 ], [ 114.224835892287473, 22.294240953274542 ] ] ] } },
{ "type": "Feature", "properties": { "Station code": "TIK", "Station number": 49, "Station name": "Tiu Keng Leng", "Lat": 22.30408, "Lng": 114.2524 }, "geometry": { "type": "Polygon", "coordinates": [ [ [ 114.259763688372814, 22.298225695314539 ], [ 114.253844019007602, 22.28676376171483 ], [ 114.249909990628041, 22.288586532981537 ], [ 114.242679306883744, 22.30605972740333 ], [ 114.244213088408856, 22.316497962782474 ], [ 114.252338231959868, 22.314122447071828 ], [ 114.259763688372814, 22.298225695314539 ] ] ] } },
{ "type": "Feature", "properties": { "Station code": "TKO", "Station number": 50, "Station name": "Tseung Kwan O", "Lat": 22.30763, "Lng": 114.26 }, "geometry": { "type": "Polygon", "coordinates": [ [ [ 114.256530699906122, 22.314740639396344 ], [ 114.27120228116442, 22.306600039454811 ], [ 114.259763688372814, 22.298225695314539 ], [ 114.252338231959868, 22.314122447071828 ], [ 114.256530699906122, 22.314740639396344 ] ] ] } },
{ "type": "Feature", "properties": { "Station code": "HAH", "Station number": 51, "Station name": "Hang Hau", "Lat": 22.31556, "Lng": 114.2644 }, "geometry": { "type": "Polygon", "coordinates": [ [ [ 114.332595080619996, 22.386561084705502 ], [ 114.422245841387166, 22.402722187376334 ], [ 114.428955515946598, 22.375086403571427 ], [ 114.432553074630789, 22.342186179367225 ], [ 114.27120228116442, 22.306600039454811 ], [ 114.256530699906122, 22.314740639396344 ], [ 114.332595080619996, 22.386561084705502 ] ] ] } },
{ "type": "Feature", "properties": { "Station code": "POA", "Station number": 52, "Station name": "Po Lam", "Lat": 22.32255, "Lng": 114.2578 }, "geometry": { "type": "Polygon", "coordinates": [ [ [ 114.236235504740563, 22.338935586105862 ], [ 114.241646280991674, 22.361653305208961 ], [ 114.25353277133388, 22.37064966836056 ], [ 114.273372264494768, 22.378848191009812 ], [ 114.332595080619996, 22.386561084705502 ], [ 114.256530699906122, 22.314740639396344 ], [ 114.252338231959868, 22.314122447071828 ], [ 114.244213088408856, 22.316497962782474 ], [ 114.240351069468375, 22.322691065637635 ], [ 114.236172070511188, 22.33538164274168 ], [ 114.236235504740563, 22.338935586105862 ] ] ] } },
{ "type": "Feature", "properties": { "Station code": "NAC", "Station number": 53, "Station name": "Nam Cheong", "Lat": 22.32636, "Lng": 114.1536 }, "geometry": { "type": "Polygon", "coordinates": [ [ [ 114.140130688937461, 22.309119917583484 ], [ 114.138284702521119, 22.308454924756809 ], [ 114.13456770801821, 22.309433319605247 ], [ 114.130747422281118, 22.311064918752045 ], [ 114.142579808670959, 22.327501715517982 ], [ 114.151438544652123, 22.331918582940382 ], [ 114.157067206755784, 22.330319181686882 ], [ 114.160066929442635, 22.324545379170154 ], [ 114.140130688937461, 22.309119917583484 ] ] ] } },
{ "type": "Feature", "properties": { "Station code": "SUN", "Station number": 54, "Station name": "Sunny Bay", "Lat": 22.33198, "Lng": 114.0289 }, "geometry": { "type": "Polygon", "coordinates": [ [ [ 113.983164344674861, 22.347689336004919 ], [ 114.026751607266576, 22.386207668963156 ], [ 114.030678872063675, 22.388667436467294 ], [ 114.055749526384972, 22.380210629770012 ], [ 114.058180608950323, 22.374836307710378 ], [ 114.065828369442585, 22.352078567049162 ], [ 113.997637014555934, 22.285045803143554 ], [ 113.988142795353099, 22.304482962250919 ], [ 113.983164344674861, 22.347689336004919 ] ] ] } },
{ "type": "Feature", "properties": { "Station code": "DIS", "Station number": 55, "Station name": "Disneyland Resort", "Lat": 22.3155, "Lng": 114.0451 }, "geometry": { "type": "Polygon", "coordinates": [ [ [ 114.054273914192308, 22.218119114474824 ], [ 114.025295079424779, 22.176697976374182 ], [ 114.025071610934745, 22.176707355143471 ], [ 113.997637014555934, 22.285045803143554 ], [ 114.065828369442585, 22.352078567049162 ], [ 114.092855257724281, 22.312793099481521 ], [ 114.054273914192308, 22.218119114474824 ] ] ] } },
{ "type": "Feature", "properties": { "Station code": "AWE", "Station number": 56, "Station name": "Asia World Expo", "Lat": 22.32199, "Lng": 113.9422 }, "geometry": { "type": "Polygon", "coordinates": [ [ [ 113.983164344674861, 22.347689336004919 ], [ 113.988142795353099, 22.304482962250919 ], [ 113.953992198836659, 22.305317175295592 ], [ 113.8691111, 22.384937636515954 ], [ 113.8691111, 22.3905743 ], [ 113.8691111, 22.396109639824715 ], [ 113.983164344674861, 22.347689336004919 ] ] ] } },
{ "type": "Feature", "properties": { "Station code": "LHP", "Station number": 57, "Station name": "LOHAS Park", "Lat": 22.29561, "Lng": 114.2688 }, "geometry": { "type": "Polygon", "coordinates": [ [ [ 114.27120228116442, 22.306600039454811 ], [ 114.432553074630789, 22.342186179367225 ], [ 114.434636606660831, 22.32997149642857 ], [ 114.436232529715042, 22.284856589285717 ], [ 114.431728854413933, 22.23974168214286 ], [ 114.42551095249263, 22.213285695351182 ], [ 114.381175225, 22.188626319473858 ], [ 114.351526796797543, 22.179377492356796 ], [ 114.268764147301496, 22.263840016553669 ], [ 114.253844019007602, 22.28676376171483 ], [ 114.259763688372814, 22.298225695314539 ], [ 114.27120228116442, 22.306600039454811 ] ] ] } },
{ "type": "Feature", "properties": { "Station code": "HUH", "Station number": 64, "Station name": "Hung Hom", "Lat": 22.30349, "Lng": 114.1815 }, "geometry": { "type": "Polygon", "coordinates": [ [ [ 114.185238287343509, 22.305807784295734 ], [ 114.187451616081987, 22.295563234134807 ], [ 114.184008518044536, 22.293012791144104 ], [ 114.178140388468975, 22.298539750395495 ], [ 114.176207041434395, 22.301716451353371 ], [ 114.177097976699812, 22.307460639248767 ], [ 114.185238287343509, 22.305807784295734 ] ] ] } },
{ "type": "Feature", "properties": { "Station code": "MKK", "Station number": 65, "Station name": "Mong Kok East", "Lat": 22.32226, "Lng": 114.1726 }, "geometry": { "type": "Polygon", "coordinates": [ [ [ 114.173432636051587, 22.32812233162262 ], [ 114.176082607269947, 22.329176770432021 ], [ 114.183784743833144, 22.326579353421725 ], [ 114.186951987175561, 22.323705484226334 ], [ 114.187097072170957, 22.323249551238462 ], [ 114.178274073638192, 22.316320135594538 ], [ 114.173107784095578, 22.317485026134026 ], [ 114.16985313709678, 22.322833037634407 ], [ 114.173432636051587, 22.32812233162262 ] ] ] } },
{ "type": "Feature", "properties": { "Station code": "TAW", "Station number": 67, "Station name": "Tai Wai", "Lat": 22.37292, "Lng": 114.1786 }, "geometry": { "type": "Polygon", "coordinates": [ [ [ 114.180873597488343, 22.379449856394881 ], [ 114.18624853205624, 22.358405139039082 ], [ 114.151109408787846, 22.388892921185196 ], [ 114.150413286130458, 22.406087471616388 ], [ 114.151834124335096, 22.406245936772347 ], [ 114.180873597488343, 22.379449856394881 ] ] ] } },
{ "type": "Feature", "properties": { "Station code": "SHT", "Station number": 68, "Station name": "Sha Tin", "Lat": 22.38224, "Lng": 114.1872 }, "geometry": { "type": "Polygon", "coordinates": [ [ [ 114.189988294476137, 22.377977765360519 ], [ 114.180873597488343, 22.379449856394881 ], [ 114.151834124335096, 22.406245936772347 ], [ 114.167364214113135, 22.410376676883157 ], [ 114.195181745557036, 22.386845230344509 ], [ 114.195220002845531, 22.385870865028064 ], [ 114.189988294476137, 22.377977765360519 ] ] ] } },
{ "type": "Feature", "properties": { "Station code": "FOT", "Station number": 69, "Station name": "Fo Tan", "Lat": 22.39548, "Lng": 114.1984 }, "geometry": { "type": "Polygon", "coordinates": [ [ [ 114.167364214113135, 22.410376676883157 ], [ 114.179347771779078, 22.417152005398787 ], [ 114.205147916420032, 22.393931875221977 ], [ 114.201758722479127, 22.389507340051068 ], [ 114.195181745557036, 22.386845230344509 ], [ 114.167364214113135, 22.410376676883157 ] ] ] } },
{ "type": "Feature", "properties": { "Station code": "RAC", "Station number": 70, "Station name": "Racecourse", "Lat": 22.40048, "Lng": 114.2029 }, "geometry": { "type": "Polygon", "coordinates": [ [ [ 114.205147916420032, 22.393931875221977 ], [ 114.179347771779078, 22.417152005398787 ], [ 114.183100010242541, 22.419895888178274 ], [ 114.212988897181447, 22.403455858693167 ], [ 114.214929942321717, 22.398181570518915 ], [ 114.205147916420032, 22.393931875221977 ] ] ] } },
{ "type": "Feature", "properties": { "Station code": "UNI", "Station number": 71, "Station name": "University", "Lat": 22.41357, "Lng": 114.2101 }, "geometry": { "type": "Polygon", "coordinates": [ [ [ 114.183100010242541, 22.419895888178274 ], [ 114.205730386895183, 22.44865714550707 ], [ 114.212446657082793, 22.43571154956631 ], [ 114.218277130208051, 22.414774850616546 ], [ 114.212988897181447, 22.403455858693167 ], [ 114.183100010242541, 22.419895888178274 ] ] ] } },
{ "type": "Feature", "properties": { "Station code": "TAP", "Station number": 72, "Station name": "Tai Po Market", "Lat": 22.44465, "Lng": 114.1706 }, "geometry": { "type": "Polygon", "coordinates": [ [ [ 114.150413286130458, 22.406087471616388 ], [ 114.14144280283206, 22.411622708942591 ], [ 114.200976424164026, 22.499505673765924 ], [ 114.223538447607666, 22.514645104726206 ], [ 114.217082300812692, 22.483855543238153 ], [ 114.205730386895183, 22.44865714550707 ], [ 114.183100010242541, 22.419895888178274 ], [ 114.179347771779078, 22.417152005398787 ], [ 114.167364214113135, 22.410376676883157 ], [ 114.151834124335096, 22.406245936772347 ], [ 114.150413286130458, 22.406087471616388 ] ] ] } },
{ "type": "Feature", "properties": { "Station code": "TWO", "Station number": 73, "Station name": "Tai Wo", "Lat": 22.45095, "Lng": 114.1613 }, "geometry": { "type": "Polygon", "coordinates": [ [ [ 114.11122694170372, 22.450321912766835 ], [ 114.200976424164026, 22.499505673765924 ], [ 114.14144280283206, 22.411622708942591 ], [ 114.137640701745113, 22.413343610058011 ], [ 114.115245397287893, 22.425936626395764 ], [ 114.11122694170372, 22.450321912766835 ] ] ] } },
{ "type": "Feature", "properties": { "Station code": "FAN", "Station number": 74, "Station name": "Fanling", "Lat": 22.49219, "Lng": 114.1387 }, "geometry": { "type": "Polygon", "coordinates": [ [ [ 114.244541955291865, 22.54976780395334 ], [ 114.223538447607666, 22.514645104726206 ], [ 114.200976424164026, 22.499505673765924 ], [ 114.11122694170372, 22.450321912766835 ], [ 114.103120950979644, 22.460938583561713 ], [ 114.172475266506822, 22.542804479395585 ], [ 114.188958116859709, 22.554378615224834 ], [ 114.1889622, 22.5543749 ], [ 114.1890445, 22.5543173 ], [ 114.1890757, 22.5542955 ], [ 114.1890967, 22.5542809 ], [ 114.1891848, 22.5542345 ], [ 114.1892016, 22.5542256 ], [ 114.1892349, 22.5542122 ], [ 114.1892619, 22.5542014 ], [ 114.1893062, 22.5542083 ], [ 114.1893592, 22.5542343 ], [ 114.1894519, 22.554247 ], [ 114.1895811, 22.5542776 ], [ 114.1896951, 22.5542987 ], [ 114.1897151, 22.5543013 ], [ 114.1899132, 22.5543267 ], [ 114.1900445, 22.5543489 ], [ 114.1901819, 22.5543681 ], [ 114.1902093, 22.5543684 ], [ 114.1904003, 22.5543707 ], [ 114.1904448, 22.5543681 ], [ 114.1905064, 22.5543745 ], [ 114.1905618, 22.5544146 ], [ 114.1905876, 22.5544535 ], [ 114.1905959, 22.5544751 ], [ 114.1906594, 22.5546409 ], [ 114.1906741, 22.5546792 ], [ 114.1907452, 22.5548511 ], [ 114.1907975, 22.5549242 ], [ 114.1908552, 22.554996 ], [ 114.1909066, 22.555058 ], [ 114.1910169, 22.5551632 ], [ 114.1910705, 22.5552144 ], [ 114.1911156, 22.5552568 ], [ 114.1911404, 22.5552957 ], [ 114.1911935, 22.5553788 ], [ 114.1913076, 22.5554148 ], [ 114.1913628, 22.5554335 ], [ 114.1914701, 22.5554698 ], [ 114.1915671, 22.555581 ], [ 114.191726, 22.5558007 ], [ 114.1917396, 22.5558195 ], [ 114.1919584, 22.5559715 ], [ 114.1921883, 22.55603 ], [ 114.1922607, 22.5560333 ], [ 114.1922922, 22.5560198 ], [ 114.1923723, 22.5559586 ], [ 114.1924255, 22.5559023 ], [ 114.1925356, 22.5557856 ], [ 114.1926308, 22.5557447 ], [ 114.1926786, 22.5557137 ], [ 114.192819, 22.555636 ], [ 114.192968, 22.5555724 ], [ 114.1931588, 22.5554952 ], [ 114.1932371, 22.5554563 ], [ 114.1934248, 22.5554381 ], [ 114.1936438, 22.5554045 ], [ 114.193817, 22.5553768 ], [ 114.1941455, 22.5553392 ], [ 114.1941912, 22.5553341 ], [ 114.1944014, 22.5553417 ], [ 114.1944718, 22.5553442 ], [ 114.1945568, 22.5553473 ], [ 114.1945886, 22.555353 ], [ 114.194621, 22.5553588 ], [ 114.1946655, 22.5553697 ], [ 114.1947229, 22.5553902 ], [ 114.1947802, 22.5553779 ], [ 114.1948159, 22.5553693 ], [ 114.1948743, 22.5553652 ], [ 114.1950398, 22.5553774 ], [ 114.1952055, 22.555507 ], [ 114.195274, 22.5555686 ], [ 114.1953151, 22.555614 ], [ 114.195317, 22.5556914 ], [ 114.1953821, 22.5557261 ], [ 114.19541, 22.5557251 ], [ 114.195458, 22.5557233 ], [ 114.1955436, 22.5557141 ], [ 114.1956533, 22.5557015 ], [ 114.1956672, 22.5556999 ], [ 114.195773, 22.5556993 ], [ 114.1958218, 22.5557052 ], [ 114.1958401, 22.5557074 ], [ 114.1958677, 22.5557222 ], [ 114.195915, 22.5557475 ], [ 114.1959297, 22.5557886 ], [ 114.1959413, 22.5558208 ], [ 114.1959643, 22.555871 ], [ 114.196042, 22.5559256 ], [ 114.1960489, 22.5560141 ], [ 114.1960338, 22.5560722 ], [ 114.1960205, 22.5561014 ], [ 114.1960153, 22.5562042 ], [ 114.1960136, 22.5562919 ], [ 114.1960475, 22.5563709 ], [ 114.1960558, 22.5564394 ], [ 114.1960565, 22.5565478 ], [ 114.1960569, 22.5566062 ], [ 114.1960575, 22.5566973 ], [ 114.1960432, 22.5568345 ], [ 114.196082, 22.5568625 ], [ 114.196091, 22.5569061 ], [ 114.1960919, 22.5569104 ], [ 114.1960976, 22.55692 ], [ 114.1961252, 22.5569662 ], [ 114.1961541, 22.5569727 ], [ 114.1961847, 22.5569795 ], [ 114.1962467, 22.5569795 ], [ 114.1962702, 22.5569765 ], [ 114.1963041, 22.5569722 ], [ 114.1963928, 22.5569513 ], [ 114.1964627, 22.5569348 ], [ 114.1964794, 22.5569309 ], [ 114.1966201, 22.5569032 ], [ 114.1967107, 22.5568853 ], [ 114.1968418, 22.556862 ], [ 114.1968629, 22.5568582 ], [ 114.1968688, 22.5568572 ], [ 114.196945, 22.5568346 ], [ 114.1970093, 22.556804 ], [ 114.1970151, 22.5568005 ], [ 114.1970489, 22.5567799 ], [ 114.1970791, 22.5567615 ], [ 114.1970845, 22.5567582 ], [ 114.197146, 22.5567111 ], [ 114.1972149, 22.5566621 ], [ 114.1972991, 22.5566101 ], [ 114.1973766, 22.5565719 ], [ 114.1974432, 22.5565427 ], [ 114.1974742, 22.5565328 ], [ 114.1974902, 22.5565277 ], [ 114.1975524, 22.5565187 ], [ 114.1975754, 22.556523 ], [ 114.1977024, 22.5565468 ], [ 114.1978182, 22.556572 ], [ 114.1980033, 22.5566358 ], [ 114.1980059, 22.5566762 ], [ 114.198008, 22.5567089 ], [ 114.1980582, 22.5567609 ], [ 114.1980958, 22.5567479 ], [ 114.1980515, 22.5566952 ], [ 114.1981385, 22.556701 ], [ 114.1981777, 22.5566967 ], [ 114.1982233, 22.5566917 ], [ 114.1985769, 22.5566685 ], [ 114.198628, 22.5566651 ], [ 114.1986698, 22.556661 ], [ 114.199009, 22.5566303 ], [ 114.199117, 22.5566488 ], [ 114.1992183, 22.5566742 ], [ 114.1993189, 22.5567188 ], [ 114.1994062, 22.5567768 ], [ 114.1995201, 22.5568971 ], [ 114.1995372, 22.5569326 ], [ 114.1995931, 22.556985 ], [ 114.1996877, 22.5570525 ], [ 114.1998491, 22.5571669 ], [ 114.1999177, 22.5572173 ], [ 114.2000283, 22.5572724 ], [ 114.2000943, 22.5573216 ], [ 114.2002161, 22.5573863 ], [ 114.2003401, 22.557447 ], [ 114.2004354, 22.5574842 ], [ 114.2005379, 22.557512 ], [ 114.2005956, 22.5575176 ], [ 114.2006513, 22.5575166 ], [ 114.2007244, 22.5574928 ], [ 114.2008042, 22.5574786 ], [ 114.2009155, 22.5574346 ], [ 114.2009734, 22.5573778 ], [ 114.2009811, 22.5573703 ], [ 114.2009845, 22.5573479 ], [ 114.2010348, 22.5572885 ], [ 114.2010638, 22.557244 ], [ 114.2010764, 22.5572247 ], [ 114.2010932, 22.5571776 ], [ 114.2010898, 22.5571145 ], [ 114.2010784, 22.557021 ], [ 114.2010875, 22.5568629 ], [ 114.2010917, 22.5567691 ], [ 114.2010975, 22.556707 ], [ 114.2011227, 22.5566339 ], [ 114.2011399, 22.5566003 ], [ 114.2011596, 22.5565621 ], [ 114.2012005, 22.5564921 ], [ 114.2012615, 22.5564135 ], [ 114.2013265, 22.5563509 ], [ 114.2013815, 22.556307 ], [ 114.2013877, 22.5563011 ], [ 114.2014628, 22.5562305 ], [ 114.2014988, 22.5561814 ], [ 114.2015062, 22.5561713 ], [ 114.201546, 22.5560884 ], [ 114.2015854, 22.5561082 ], [ 114.2016484, 22.5561212 ], [ 114.2017188, 22.5561342 ], [ 114.2017952, 22.5561416 ], [ 114.2019045, 22.556196 ], [ 114.2019622, 22.5562128 ], [ 114.2020158, 22.5562172 ], [ 114.2020572, 22.5562054 ], [ 114.2021111, 22.5561844 ], [ 114.2021848, 22.5561695 ], [ 114.2022579, 22.5561608 ], [ 114.2023619, 22.5561398 ], [ 114.2024156, 22.5561342 ], [ 114.2025248, 22.5561187 ], [ 114.2026006, 22.5561274 ], [ 114.202622, 22.5561311 ], [ 114.2026448, 22.5561299 ], [ 114.2026947, 22.5561345 ], [ 114.2027917, 22.5561274 ], [ 114.2028963, 22.5561125 ], [ 114.2029989, 22.556136 ], [ 114.2030989, 22.5561657 ], [ 114.2031618, 22.5561596 ], [ 114.2032879, 22.5562153 ], [ 114.2033119, 22.5562167 ], [ 114.2034859, 22.5562176 ], [ 114.2035186, 22.5562178 ], [ 114.2036486, 22.5562215 ], [ 114.2037396, 22.5562283 ], [ 114.2037729, 22.5562308 ], [ 114.2039029, 22.5562601 ], [ 114.2040718, 22.556294 ], [ 114.2041368, 22.5563113 ], [ 114.2042207, 22.556341 ], [ 114.204348, 22.5563528 ], [ 114.2043983, 22.5563534 ], [ 114.2044205, 22.5563522 ], [ 114.2044895, 22.5563485 ], [ 114.2045934, 22.5563299 ], [ 114.2046974, 22.556328 ], [ 114.2048161, 22.5563175 ], [ 114.2049401, 22.5563206 ], [ 114.2049503, 22.5563273 ], [ 114.2050716, 22.5563577 ], [ 114.2051892, 22.5564026 ], [ 114.2052788, 22.5564011 ], [ 114.2053787, 22.5563943 ], [ 114.2055754, 22.5564334 ], [ 114.2055979, 22.5564332 ], [ 114.205673, 22.5564327 ], [ 114.2057689, 22.5564345 ], [ 114.2058172, 22.5564413 ], [ 114.2058367, 22.5564457 ], [ 114.2058582, 22.556451 ], [ 114.2060687, 22.5565033 ], [ 114.2061692, 22.5565157 ], [ 114.206315, 22.5565473 ], [ 114.2064965, 22.5565522 ], [ 114.2065676, 22.5565529 ], [ 114.2065863, 22.5565531 ], [ 114.2071214, 22.5565584 ], [ 114.207155, 22.5565881 ], [ 114.2071563, 22.5566104 ], [ 114.2071509, 22.556629 ], [ 114.207387, 22.5566798 ], [ 114.2084918, 22.5569402 ], [ 114.2086396, 22.5568804 ], [ 114.208996, 22.5565649 ], [ 114.2092665, 22.5564364 ], [ 114.2095193, 22.5564048 ], [ 114.2095428, 22.5563961 ], [ 114.2098922, 22.5561738 ], [ 114.2099391, 22.5561831 ], [ 114.2100645, 22.5561261 ], [ 114.2101094, 22.5561001 ], [ 114.2101295, 22.5560611 ], [ 114.2101289, 22.556045 ], [ 114.210157, 22.5560568 ], [ 114.2101778, 22.5560506 ], [ 114.2103186, 22.555998 ], [ 114.2103482, 22.5559838 ], [ 114.2104454, 22.5559373 ], [ 114.2105325, 22.5559181 ], [ 114.2106165, 22.5558996 ], [ 114.2107122, 22.5559274 ], [ 114.2108919, 22.5561193 ], [ 114.2110328, 22.5562178 ], [ 114.2112895, 22.5564853 ], [ 114.211292, 22.5564822 ], [ 114.2113673, 22.556438 ], [ 114.2114237, 22.5564048 ], [ 114.2114688, 22.5563762 ], [ 114.2114928, 22.5563559 ], [ 114.2115165, 22.5563406 ], [ 114.2115433, 22.5563216 ], [ 114.2116109, 22.5562596 ], [ 114.211634, 22.556235 ], [ 114.2116524, 22.5560915 ], [ 114.2116634, 22.5560794 ], [ 114.2117858, 22.5560147 ], [ 114.211803, 22.5560018 ], [ 114.2118166, 22.5559915 ], [ 114.2118582, 22.5559602 ], [ 114.2118666, 22.5559308 ], [ 114.2118824, 22.55584 ], [ 114.2119005, 22.5557602 ], [ 114.211936, 22.5557069 ], [ 114.2119937, 22.5556463 ], [ 114.212003, 22.5556398 ], [ 114.2120168, 22.5556301 ], [ 114.2120465, 22.5556209 ], [ 114.2121197, 22.5555982 ], [ 114.2121625, 22.5555852 ], [ 114.2121707, 22.5555827 ], [ 114.2122188, 22.5555637 ], [ 114.2122441, 22.5555403 ], [ 114.2123826, 22.5554629 ], [ 114.2124637, 22.555409 ], [ 114.2125475, 22.555333 ], [ 114.2126719, 22.5551121 ], [ 114.2127421, 22.5550495 ], [ 114.2127504, 22.5550421 ], [ 114.2128448, 22.5549877 ], [ 114.2128522, 22.5549866 ], [ 114.2129286, 22.5549752 ], [ 114.2129658, 22.5549721 ], [ 114.2130583, 22.5549399 ], [ 114.2130694, 22.5549386 ], [ 114.213089, 22.5549364 ], [ 114.2131008, 22.5549315 ], [ 114.2131205, 22.5549234 ], [ 114.2131456, 22.5549083 ], [ 114.2131795, 22.5548879 ], [ 114.2132103, 22.5548688 ], [ 114.2132618, 22.5548367 ], [ 114.2132857, 22.5548285 ], [ 114.2133844, 22.5548034 ], [ 114.2135458, 22.5548045 ], [ 114.2137919, 22.554835 ], [ 114.2140543, 22.5548585 ], [ 114.2141321, 22.5548663 ], [ 114.2142615, 22.5548851 ], [ 114.2143208, 22.5548929 ], [ 114.2144264, 22.5548988 ], [ 114.2144735, 22.5548989 ], [ 114.2145401, 22.5548949 ], [ 114.214614, 22.5548966 ], [ 114.2146651, 22.5548913 ], [ 114.2148096, 22.5549014 ], [ 114.2148422, 22.5549053 ], [ 114.214993, 22.5549576 ], [ 114.2151111, 22.5549842 ], [ 114.2152222, 22.5549983 ], [ 114.2153028, 22.5550177 ], [ 114.2153634, 22.5550455 ], [ 114.2155878, 22.5552313 ], [ 114.2156716, 22.5552906 ], [ 114.2157494, 22.5553199 ], [ 114.2157848, 22.5553232 ], [ 114.2158311, 22.5553177 ], [ 114.2159305, 22.5553131 ], [ 114.2159766, 22.5553059 ], [ 114.2160572, 22.5552889 ], [ 114.2161025, 22.5552479 ], [ 114.2161844, 22.5551358 ], [ 114.2162184, 22.5551092 ], [ 114.216245, 22.5551022 ], [ 114.2163241, 22.5551019 ], [ 114.2163686, 22.555113 ], [ 114.2164279, 22.555131 ], [ 114.2165433, 22.5551539 ], [ 114.2167278, 22.5552158 ], [ 114.2167836, 22.555244 ], [ 114.2168216, 22.5552663 ], [ 114.2168465, 22.5552891 ], [ 114.2168734, 22.5553205 ], [ 114.2169117, 22.5553847 ], [ 114.2169133, 22.5553874 ], [ 114.2169264, 22.5554307 ], [ 114.2169378, 22.5554776 ], [ 114.2169445, 22.5555287 ], [ 114.2169459, 22.5555956 ], [ 114.2168875, 22.5556733 ], [ 114.21689, 22.5557211 ], [ 114.2169125, 22.5557611 ], [ 114.2169889, 22.5558085 ], [ 114.2170523, 22.55585 ], [ 114.2170885, 22.5558537 ], [ 114.217236, 22.5558252 ], [ 114.2172843, 22.5558252 ], [ 114.2173292, 22.5558691 ], [ 114.217377, 22.5559104 ], [ 114.2174798, 22.5559216 ], [ 114.2176055, 22.5559515 ], [ 114.2176779, 22.5559775 ], [ 114.2177369, 22.5559854 ], [ 114.2177955, 22.5560073 ], [ 114.2178509, 22.5560103 ], [ 114.2178617, 22.5560141 ], [ 114.217869, 22.5560172 ], [ 114.2179046, 22.5560469 ], [ 114.217971, 22.5560103 ], [ 114.2179897, 22.5559998 ], [ 114.2179964, 22.5559744 ], [ 114.2180814, 22.5558992 ], [ 114.2184155, 22.5556084 ], [ 114.2186478, 22.5553952 ], [ 114.218667, 22.5553564 ], [ 114.218789, 22.5552394 ], [ 114.2188983, 22.555165 ], [ 114.2189506, 22.5551112 ], [ 114.2189617, 22.5550972 ], [ 114.2190619, 22.5549715 ], [ 114.2191602, 22.5549066 ], [ 114.2192297, 22.5548608 ], [ 114.2192906, 22.5548133 ], [ 114.2194251, 22.5545993 ], [ 114.2194287, 22.5545062 ], [ 114.2194175, 22.554447 ], [ 114.2194167, 22.5544108 ], [ 114.2194636, 22.5543563 ], [ 114.2194988, 22.5542882 ], [ 114.2195092, 22.5542306 ], [ 114.2195226, 22.554194 ], [ 114.2195401, 22.5541547 ], [ 114.2195662, 22.5541309 ], [ 114.2196324, 22.5540813 ], [ 114.2196577, 22.5540601 ], [ 114.219697, 22.5540318 ], [ 114.2197294, 22.5539812 ], [ 114.2197409, 22.5539522 ], [ 114.2197452, 22.5539253 ], [ 114.2197359, 22.5538609 ], [ 114.2197566, 22.553807 ], [ 114.2197902, 22.5537537 ], [ 114.2199038, 22.5537054 ], [ 114.2199196, 22.5536949 ], [ 114.219988, 22.5536553 ], [ 114.2200174, 22.5536266 ], [ 114.2200805, 22.5535977 ], [ 114.2200993, 22.5535927 ], [ 114.2201462, 22.5535971 ], [ 114.2201764, 22.5536099 ], [ 114.2202441, 22.5536454 ], [ 114.2202799, 22.5536683 ], [ 114.2203062, 22.5536715 ], [ 114.2203213, 22.5536708 ], [ 114.2203533, 22.5536794 ], [ 114.2203672, 22.5536903 ], [ 114.220391, 22.5536879 ], [ 114.2204253, 22.5536732 ], [ 114.2204661, 22.553624 ], [ 114.2205328, 22.5535296 ], [ 114.2205901, 22.5534359 ], [ 114.22068, 22.5533258 ], [ 114.2207787, 22.5531763 ], [ 114.2208436, 22.5530831 ], [ 114.2208493, 22.5530648 ], [ 114.2208433, 22.5530136 ], [ 114.2208527, 22.5527251 ], [ 114.220851, 22.5526737 ], [ 114.2208426, 22.5526098 ], [ 114.2208467, 22.5525521 ], [ 114.2208473, 22.552544 ], [ 114.2208859, 22.5524152 ], [ 114.2209093, 22.5523282 ], [ 114.2209113, 22.5523167 ], [ 114.2209207, 22.5522917 ], [ 114.2209342, 22.5522555 ], [ 114.2209613, 22.5522065 ], [ 114.2210106, 22.552139 ], [ 114.2210642, 22.552047 ], [ 114.2210907, 22.5520021 ], [ 114.2211184, 22.551962 ], [ 114.2211638, 22.5519012 ], [ 114.2212439, 22.5518074 ], [ 114.2213023, 22.5517545 ], [ 114.2213883, 22.5516901 ], [ 114.2215239, 22.5516241 ], [ 114.2215651, 22.5516197 ], [ 114.2216608, 22.5516184 ], [ 114.2217358, 22.5516173 ], [ 114.2218112, 22.5516101 ], [ 114.2219024, 22.5515869 ], [ 114.2219863, 22.551559 ], [ 114.2220751, 22.5515197 ], [ 114.2222286, 22.5514726 ], [ 114.2224231, 22.5514104 ], [ 114.2225089, 22.5513822 ], [ 114.2226028, 22.5513466 ], [ 114.2227778, 22.5512729 ], [ 114.2228649, 22.5512206 ], [ 114.2229295, 22.5511816 ], [ 114.2229974, 22.5511231 ], [ 114.2230424, 22.5510995 ], [ 114.2232122, 22.5509811 ], [ 114.2232682, 22.5509533 ], [ 114.2233079, 22.5509447 ], [ 114.2233476, 22.5509485 ], [ 114.223389, 22.5509583 ], [ 114.2236633, 22.5509965 ], [ 114.223677, 22.5509984 ], [ 114.2239034, 22.5510035 ], [ 114.2239349, 22.5510042 ], [ 114.2240589, 22.5509986 ], [ 114.2242504, 22.5509629 ], [ 114.2242628, 22.5509556 ], [ 114.2242778, 22.5509468 ], [ 114.2243365, 22.5508933 ], [ 114.2243412, 22.5508833 ], [ 114.2243545, 22.550855 ], [ 114.2243919, 22.5506862 ], [ 114.224419, 22.550618 ], [ 114.2244291, 22.5506029 ], [ 114.2244934, 22.5504307 ], [ 114.2245943, 22.5501816 ], [ 114.2246343, 22.550143 ], [ 114.2249849, 22.5498628 ], [ 114.2251106, 22.5497505 ], [ 114.2251948, 22.5496541 ], [ 114.2252847, 22.5495383 ], [ 114.2253162, 22.5494844 ], [ 114.2253969, 22.5494143 ], [ 114.2254771, 22.5493754 ], [ 114.2255891, 22.5492219 ], [ 114.2257329, 22.5490333 ], [ 114.2257514, 22.5490144 ], [ 114.225764, 22.5490021 ], [ 114.2257978, 22.548969 ], [ 114.2258058, 22.5489544 ], [ 114.2259184, 22.5487493 ], [ 114.2260835, 22.5485002 ], [ 114.226208, 22.5483988 ], [ 114.2262684, 22.5483567 ], [ 114.226487, 22.5481994 ], [ 114.2266177, 22.5481511 ], [ 114.2269512, 22.5480237 ], [ 114.2269484, 22.5479959 ], [ 114.2269443, 22.5479542 ], [ 114.2269371, 22.5478402 ], [ 114.2269282, 22.5478168 ], [ 114.2269278, 22.5478157 ], [ 114.2266489, 22.5470783 ], [ 114.2266231, 22.5470259 ], [ 114.2264263, 22.5467887 ], [ 114.2261845, 22.5464906 ], [ 114.2260874, 22.5463741 ], [ 114.2259206, 22.546174 ], [ 114.2258003, 22.5460319 ], [ 114.2256867, 22.5459944 ], [ 114.2256797, 22.5459785 ], [ 114.2256678, 22.5459513 ], [ 114.2256628, 22.545938 ], [ 114.2256519, 22.545909 ], [ 114.2256258, 22.5457472 ], [ 114.2253941, 22.5453094 ], [ 114.2253998, 22.5452383 ], [ 114.2254215, 22.5451857 ], [ 114.2258449, 22.5445679 ], [ 114.2258607, 22.5445553 ], [ 114.2258917, 22.5445307 ], [ 114.2260313, 22.5443205 ], [ 114.2260749, 22.5442725 ], [ 114.2261519, 22.5441824 ], [ 114.2261347, 22.5441708 ], [ 114.2261384, 22.5441611 ], [ 114.2261113, 22.5441153 ], [ 114.2261125, 22.5440955 ], [ 114.2263285, 22.5437697 ], [ 114.2263484, 22.5437343 ], [ 114.2263581, 22.5437042 ], [ 114.2263493, 22.5436699 ], [ 114.2336247, 22.5436741 ], [ 114.2370512, 22.5507188 ], [ 114.239949885215893, 22.551968004070542 ], [ 114.244541955291865, 22.54976780395334 ] ] ] } },
{ "type": "Feature", "properties": { "Station code": "SHS", "Station number": 75, "Station name": "Sheung Shui", "Lat": 22.50117, "Lng": 114.1281 }, "geometry": { "type": "Polygon", "coordinates": [ [ [ 114.089530333808653, 22.474156237474993 ], [ 114.095358266801085, 22.50089616532258 ], [ 114.172475266506822, 22.542804479395585 ], [ 114.103120950979644, 22.460938583561713 ], [ 114.089530333808653, 22.474156237474993 ] ] ] } },
{ "type": "Feature", "properties": { "Station code": "LOW", "Station number": 76, "Station name": "Lo Wu", "Lat": 22.52822, "Lng": 114.1134 }, "geometry": { "type": "Polygon", "coordinates": [ [ [ 114.172475266506822, 22.542804479395585 ], [ 114.095358266801085, 22.50089616532258 ], [ 114.086222002992201, 22.533297636228429 ], [ 114.0863228, 22.5334235 ], [ 114.0870129, 22.5344071 ], [ 114.0876937, 22.5353399 ], [ 114.0881333, 22.5357862 ], [ 114.0884649, 22.5361332 ], [ 114.0889963, 22.5364705 ], [ 114.0896152, 22.5367094 ], [ 114.0902533, 22.5368417 ], [ 114.0917925, 22.5370108 ], [ 114.0922052, 22.5369893 ], [ 114.0927171, 22.5368811 ], [ 114.0933678, 22.536614 ], [ 114.0938169, 22.5363469 ], [ 114.0942539, 22.5360036 ], [ 114.0953406, 22.5349288 ], [ 114.0957297, 22.5345979 ], [ 114.0962413, 22.5343366 ], [ 114.0966667, 22.5341929 ], [ 114.0972742, 22.534121 ], [ 114.097889, 22.5341356 ], [ 114.0996246, 22.5344865 ], [ 114.0999998, 22.5345622 ], [ 114.1002663, 22.534616 ], [ 114.1027235, 22.535106 ], [ 114.1030943, 22.5351511 ], [ 114.1032825, 22.5351714 ], [ 114.1036356, 22.535177 ], [ 114.1038969, 22.5351532 ], [ 114.1041381, 22.5350997 ], [ 114.1043374, 22.5350375 ], [ 114.1050906, 22.5347845 ], [ 114.1054013, 22.534666 ], [ 114.1068733, 22.5340329 ], [ 114.1072749, 22.5338602 ], [ 114.1076283, 22.5336896 ], [ 114.1079334, 22.5334794 ], [ 114.1082035, 22.5332211 ], [ 114.108436, 22.5329213 ], [ 114.1086145, 22.5325917 ], [ 114.109084, 22.5313573 ], [ 114.1092268, 22.5310922 ], [ 114.1092929, 22.5309694 ], [ 114.1095858, 22.530595 ], [ 114.1099773, 22.5303117 ], [ 114.1105046, 22.5299977 ], [ 114.1106983, 22.5299108 ], [ 114.1110184, 22.5297671 ], [ 114.1115261, 22.5296048 ], [ 114.1118767, 22.5295742 ], [ 114.112203, 22.5295796 ], [ 114.1124985, 22.5296533 ], [ 114.1128065, 22.5297592 ], [ 114.1130823, 22.5298618 ], [ 114.1132388, 22.5299402 ], [ 114.1147774, 22.5307107 ], [ 114.1152223, 22.5309851 ], [ 114.1155671, 22.5312479 ], [ 114.1157261, 22.5314141 ], [ 114.1158961, 22.5318017 ], [ 114.1160185, 22.5322209 ], [ 114.1160694, 22.5330456 ], [ 114.1161194, 22.5333046 ], [ 114.1162879, 22.5336474 ], [ 114.1164405, 22.5338996 ], [ 114.1168122, 22.5341998 ], [ 114.1170769, 22.5343372 ], [ 114.1173828, 22.5344481 ], [ 114.1186178, 22.5346314 ], [ 114.1197332, 22.5348139 ], [ 114.1199962, 22.5349162 ], [ 114.1201884, 22.5350637 ], [ 114.1204169, 22.5353865 ], [ 114.1209491, 22.536143 ], [ 114.1214883, 22.5369258 ], [ 114.1219559, 22.5375842 ], [ 114.1221152, 22.5377738 ], [ 114.1223203, 22.5379359 ], [ 114.1235569, 22.5387268 ], [ 114.1250413, 22.539633 ], [ 114.1254478, 22.5397873 ], [ 114.1259271, 22.5398427 ], [ 114.1259507, 22.5398374 ], [ 114.1262942, 22.5398253 ], [ 114.1265121, 22.5398067 ], [ 114.1269505, 22.5396967 ], [ 114.1270378, 22.5396703 ], [ 114.1272774, 22.5396391 ], [ 114.127304, 22.5396378 ], [ 114.1273353, 22.5396389 ], [ 114.1276091, 22.5396482 ], [ 114.1283393, 22.5397923 ], [ 114.1289152, 22.5401987 ], [ 114.1289611, 22.5402626 ], [ 114.129451, 22.5409443 ], [ 114.1301585, 22.5417147 ], [ 114.1303679, 22.5418425 ], [ 114.1308037, 22.541955 ], [ 114.1312566, 22.5419965 ], [ 114.1336596, 22.5414828 ], [ 114.133985, 22.5415093 ], [ 114.1344427, 22.5416094 ], [ 114.13469, 22.5417278 ], [ 114.1349202, 22.5418381 ], [ 114.1357718, 22.5425119 ], [ 114.1360337, 22.5428557 ], [ 114.1369886, 22.5433213 ], [ 114.1373093, 22.5434437 ], [ 114.137528, 22.5435188 ], [ 114.1380475, 22.5435797 ], [ 114.1383361, 22.5435575 ], [ 114.1386407, 22.5434863 ], [ 114.1391751, 22.5432815 ], [ 114.1398036, 22.543011 ], [ 114.140133, 22.5429196 ], [ 114.1405144, 22.5428785 ], [ 114.1409718, 22.5428817 ], [ 114.1411825, 22.5428783 ], [ 114.1413472, 22.5428226 ], [ 114.141474, 22.5427321 ], [ 114.1416843, 22.5424623 ], [ 114.1418024, 22.5423626 ], [ 114.1421896, 22.5421176 ], [ 114.1426709, 22.5420488 ], [ 114.1427367, 22.5420499 ], [ 114.1431906, 22.5420571 ], [ 114.1437349, 22.542054 ], [ 114.1439657, 22.5420459 ], [ 114.1440445, 22.5420225 ], [ 114.1441177, 22.5419461 ], [ 114.1442653, 22.5416154 ], [ 114.1442909, 22.5415581 ], [ 114.1443966, 22.5412946 ], [ 114.1444062, 22.5412708 ], [ 114.1444685, 22.5412236 ], [ 114.1444921, 22.5412057 ], [ 114.1445115, 22.5411976 ], [ 114.1445932, 22.5411632 ], [ 114.1447793, 22.5411647 ], [ 114.1453352, 22.5411693 ], [ 114.1454245, 22.54117 ], [ 114.1455297, 22.5411862 ], [ 114.1459193, 22.5412462 ], [ 114.146118, 22.5413068 ], [ 114.1462661, 22.541352 ], [ 114.1467553, 22.5414875 ], [ 114.1467789, 22.541494 ], [ 114.147267, 22.541542 ], [ 114.1475872, 22.5416821 ], [ 114.1477276, 22.5417516 ], [ 114.1480179, 22.5417855 ], [ 114.1481124, 22.5417965 ], [ 114.1483078, 22.5418229 ], [ 114.1483338, 22.5418264 ], [ 114.1484519, 22.541892 ], [ 114.1485184, 22.5419777 ], [ 114.1486135, 22.5421001 ], [ 114.1486159, 22.5421388 ], [ 114.1486241, 22.5422681 ], [ 114.1485943, 22.542409 ], [ 114.1485779, 22.5424353 ], [ 114.1484975, 22.5425644 ], [ 114.1483859, 22.5427873 ], [ 114.1482728, 22.5430234 ], [ 114.1483101, 22.5432994 ], [ 114.1483899, 22.5434851 ], [ 114.148428, 22.5435737 ], [ 114.1485479, 22.5438762 ], [ 114.1486953, 22.5442074 ], [ 114.1489373, 22.5444605 ], [ 114.149841, 22.5454428 ], [ 114.149914, 22.5455221 ], [ 114.1501941, 22.5459649 ], [ 114.1505157, 22.5462253 ], [ 114.1505418, 22.5462385 ], [ 114.1506401, 22.5462882 ], [ 114.150806, 22.5463265 ], [ 114.1509536, 22.5463313 ], [ 114.1509838, 22.5463323 ], [ 114.151125, 22.5463078 ], [ 114.1512692, 22.5463107 ], [ 114.1513268, 22.5463373 ], [ 114.151411, 22.5463761 ], [ 114.1515517, 22.5465087 ], [ 114.1517892, 22.5467191 ], [ 114.1518429, 22.5468236 ], [ 114.1519005, 22.5469356 ], [ 114.1519461, 22.5471171 ], [ 114.1519728, 22.5472235 ], [ 114.1519618, 22.5474479 ], [ 114.1519559, 22.5475669 ], [ 114.1518325, 22.5478482 ], [ 114.1516963, 22.5480335 ], [ 114.1515886, 22.5481109 ], [ 114.1514613, 22.548125 ], [ 114.1514244, 22.548126 ], [ 114.1507372, 22.5479016 ], [ 114.1505961, 22.5478589 ], [ 114.1504911, 22.5478376 ], [ 114.1503969, 22.5478314 ], [ 114.1502658, 22.5478395 ], [ 114.1500898, 22.5478824 ], [ 114.1499394, 22.5479804 ], [ 114.1498579, 22.5480356 ], [ 114.1497709, 22.5481182 ], [ 114.1496995, 22.5482109 ], [ 114.1496542, 22.5482831 ], [ 114.1496257, 22.5483414 ], [ 114.149601, 22.5484066 ], [ 114.1495838, 22.5484686 ], [ 114.1495683, 22.5485615 ], [ 114.1495612, 22.5486613 ], [ 114.1495649, 22.5491047 ], [ 114.1495707, 22.5491927 ], [ 114.1495941, 22.5493772 ], [ 114.1496714, 22.5499878 ], [ 114.1496844, 22.5500551 ], [ 114.1496943, 22.550106 ], [ 114.1497248, 22.5501996 ], [ 114.1497877, 22.5503502 ], [ 114.1498122, 22.5503995 ], [ 114.1498843, 22.5505206 ], [ 114.149972, 22.5506204 ], [ 114.1500795, 22.550712 ], [ 114.1502029, 22.5507839 ], [ 114.1503409, 22.5508355 ], [ 114.1504376, 22.5508646 ], [ 114.1504756, 22.5508726 ], [ 114.1507313, 22.550926 ], [ 114.150893, 22.5509743 ], [ 114.1509282, 22.550991 ], [ 114.1510738, 22.5510602 ], [ 114.1512221, 22.551164 ], [ 114.1513558, 22.5512853 ], [ 114.1514784, 22.5514256 ], [ 114.1515277, 22.551515 ], [ 114.1515735, 22.551598 ], [ 114.1516451, 22.5517697 ], [ 114.151674, 22.5518807 ], [ 114.151688, 22.5519348 ], [ 114.1516899, 22.5520828 ], [ 114.1516798, 22.552197 ], [ 114.1516413, 22.552632 ], [ 114.1516366, 22.5527043 ], [ 114.1516355, 22.5527687 ], [ 114.1516281, 22.5528632 ], [ 114.1516596, 22.5531663 ], [ 114.1516681, 22.553218 ], [ 114.1516871, 22.5533183 ], [ 114.1518597, 22.5541243 ], [ 114.151871, 22.554202 ], [ 114.1518737, 22.5542209 ], [ 114.1518764, 22.5542392 ], [ 114.1518648, 22.554336 ], [ 114.1519471, 22.5545662 ], [ 114.1520076, 22.5546801 ], [ 114.152108, 22.5547785 ], [ 114.1522529, 22.5548351 ], [ 114.1523573, 22.5548438 ], [ 114.1525332, 22.5548192 ], [ 114.1527807, 22.5547486 ], [ 114.1532337, 22.5545787 ], [ 114.1534509, 22.5545172 ], [ 114.1537158, 22.5544614 ], [ 114.1539534, 22.5544596 ], [ 114.1544211, 22.554458 ], [ 114.1545584, 22.5544246 ], [ 114.154686, 22.5543702 ], [ 114.1547922, 22.5543669 ], [ 114.1548708, 22.5543978 ], [ 114.1550714, 22.554678 ], [ 114.1550987, 22.5547161 ], [ 114.1552007, 22.5548089 ], [ 114.1554344, 22.5549802 ], [ 114.1554517, 22.5549921 ], [ 114.155643, 22.5550864 ], [ 114.1557766, 22.5551558 ], [ 114.1558907, 22.5551891 ], [ 114.1559099, 22.5551947 ], [ 114.1560567, 22.5551947 ], [ 114.156183, 22.5551193 ], [ 114.1563592, 22.5550247 ], [ 114.1563857, 22.5550105 ], [ 114.1564016, 22.555002 ], [ 114.156503, 22.5550064 ], [ 114.1565802, 22.5550257 ], [ 114.156692, 22.5550724 ], [ 114.1567048, 22.5550777 ], [ 114.1569326, 22.5553723 ], [ 114.1569585, 22.5554398 ], [ 114.1569927, 22.555658 ], [ 114.1570245, 22.5558603 ], [ 114.157108, 22.5562165 ], [ 114.1571279, 22.5562681 ], [ 114.1571784, 22.5563987 ], [ 114.157453, 22.557012 ], [ 114.1577171, 22.5576228 ], [ 114.1577999, 22.5577972 ], [ 114.1579997, 22.558218 ], [ 114.1582238, 22.5587623 ], [ 114.1582382, 22.5587871 ], [ 114.1584226, 22.5591054 ], [ 114.1586533, 22.5592676 ], [ 114.1589577, 22.559509 ], [ 114.1590768, 22.5596451 ], [ 114.1591683, 22.5598311 ], [ 114.1592126, 22.5599212 ], [ 114.1593017, 22.5601615 ], [ 114.1593106, 22.5601854 ], [ 114.1594675, 22.5604087 ], [ 114.1596631, 22.5606114 ], [ 114.1598775, 22.5608018 ], [ 114.1599458, 22.5609128 ], [ 114.1600856, 22.5611402 ], [ 114.1601893, 22.5612751 ], [ 114.1602501, 22.5613456 ], [ 114.1603314, 22.5614147 ], [ 114.1605585, 22.5615753 ], [ 114.1606788, 22.5616403 ], [ 114.1607972, 22.5617043 ], [ 114.1608464, 22.5617309 ], [ 114.1610345, 22.56185 ], [ 114.1612843, 22.5619295 ], [ 114.1614669, 22.561963 ], [ 114.1615632, 22.5619337 ], [ 114.1618061, 22.561826 ], [ 114.1618353, 22.5618131 ], [ 114.1619324, 22.5617346 ], [ 114.1621032, 22.5615965 ], [ 114.162354, 22.5613302 ], [ 114.1624275, 22.561192 ], [ 114.1625124, 22.5610325 ], [ 114.1626481, 22.5607297 ], [ 114.162845, 22.5603003 ], [ 114.163074, 22.5597156 ], [ 114.163208, 22.5593733 ], [ 114.1632225, 22.5593364 ], [ 114.1635146, 22.5591753 ], [ 114.1635425, 22.5591599 ], [ 114.1639145, 22.5591172 ], [ 114.1645222, 22.5591215 ], [ 114.165031, 22.559188 ], [ 114.1651005, 22.5592085 ], [ 114.1651359, 22.5592189 ], [ 114.1655376, 22.5595143 ], [ 114.1656943, 22.5596295 ], [ 114.1660365, 22.5599402 ], [ 114.1660726, 22.5599854 ], [ 114.1662036, 22.5601491 ], [ 114.1664269, 22.5604281 ], [ 114.1668383, 22.5608561 ], [ 114.1668739, 22.5608856 ], [ 114.1670492, 22.5610306 ], [ 114.167107, 22.5610649 ], [ 114.1672926, 22.5611751 ], [ 114.1674076, 22.5612313 ], [ 114.1674345, 22.5612371 ], [ 114.1675469, 22.5612613 ], [ 114.1678514, 22.5612942 ], [ 114.1682147, 22.5612786 ], [ 114.1683952, 22.5612709 ], [ 114.168559, 22.5612518 ], [ 114.1685896, 22.5612477 ], [ 114.168751, 22.561226 ], [ 114.1687954, 22.56122 ], [ 114.1688523, 22.5611956 ], [ 114.1691363, 22.5610735 ], [ 114.1691926, 22.5610405 ], [ 114.1693347, 22.5609571 ], [ 114.1693646, 22.5609396 ], [ 114.1695032, 22.5607842 ], [ 114.1695289, 22.5607378 ], [ 114.1696064, 22.5605975 ], [ 114.1697461, 22.5603657 ], [ 114.1697534, 22.5603537 ], [ 114.1698128, 22.5602551 ], [ 114.1698266, 22.5602425 ], [ 114.1701868, 22.5599122 ], [ 114.1705205, 22.5597207 ], [ 114.1708505, 22.5596386 ], [ 114.1720368, 22.5596513 ], [ 114.1720582, 22.5596524 ], [ 114.1724556, 22.5596719 ], [ 114.1726072, 22.5596728 ], [ 114.1727182, 22.5596735 ], [ 114.172876, 22.5596219 ], [ 114.1728935, 22.5596163 ], [ 114.1729323, 22.5596038 ], [ 114.1730816, 22.5595914 ], [ 114.1731323, 22.5595831 ], [ 114.1731874, 22.5595968 ], [ 114.1732986, 22.5596243 ], [ 114.1734607, 22.559662 ], [ 114.1736723, 22.5596998 ], [ 114.1738346, 22.5597289 ], [ 114.1738486, 22.5597314 ], [ 114.1740234, 22.5597691 ], [ 114.1741256, 22.5597911 ], [ 114.1742357, 22.5598244 ], [ 114.1743582, 22.5598615 ], [ 114.1745664, 22.5599368 ], [ 114.1745943, 22.5599469 ], [ 114.1747138, 22.5599769 ], [ 114.1748445, 22.5599933 ], [ 114.1749564, 22.5600029 ], [ 114.1750264, 22.5600071 ], [ 114.1752201, 22.5600189 ], [ 114.1753869, 22.5600262 ], [ 114.1757558, 22.5600763 ], [ 114.175842, 22.5600943 ], [ 114.1759723, 22.5600493 ], [ 114.1760749, 22.5600732 ], [ 114.1762009, 22.5600435 ], [ 114.1763163, 22.5599828 ], [ 114.1763653, 22.5599935 ], [ 114.1763847, 22.5599977 ], [ 114.1764565, 22.5600081 ], [ 114.1764736, 22.5600034 ], [ 114.1764978, 22.559969 ], [ 114.1765218, 22.5599509 ], [ 114.1765684, 22.5599259 ], [ 114.1766037, 22.5599169 ], [ 114.1766818, 22.5598969 ], [ 114.1767547, 22.5598762 ], [ 114.176865, 22.5598375 ], [ 114.1769194, 22.5598144 ], [ 114.1769718, 22.5598112 ], [ 114.1770151, 22.5598089 ], [ 114.1770558, 22.5598099 ], [ 114.1770812, 22.5597786 ], [ 114.1772589, 22.5596972 ], [ 114.1772675, 22.5596872 ], [ 114.1773525, 22.5595881 ], [ 114.1773959, 22.559498 ], [ 114.1774188, 22.5593857 ], [ 114.1774224, 22.5593225 ], [ 114.1774299, 22.5592747 ], [ 114.1774397, 22.5592098 ], [ 114.177465, 22.5591422 ], [ 114.1774639, 22.5591344 ], [ 114.1774595, 22.5591033 ], [ 114.1774605, 22.5590543 ], [ 114.1774781, 22.5589763 ], [ 114.1774864, 22.5589333 ], [ 114.1774926, 22.5589009 ], [ 114.1775064, 22.5588052 ], [ 114.177607, 22.5585055 ], [ 114.1776199, 22.5583524 ], [ 114.1776237, 22.5583076 ], [ 114.1776475, 22.5581864 ], [ 114.1776523, 22.5581621 ], [ 114.1776412, 22.5579909 ], [ 114.1776193, 22.5576542 ], [ 114.1776177, 22.5576295 ], [ 114.1776249, 22.5574592 ], [ 114.1776299, 22.5573429 ], [ 114.177636, 22.5571993 ], [ 114.1776404, 22.5570968 ], [ 114.1776476, 22.5569282 ], [ 114.1776572, 22.5568843 ], [ 114.1777413, 22.5565011 ], [ 114.177745, 22.5564843 ], [ 114.1777752, 22.5563465 ], [ 114.1777713, 22.5561593 ], [ 114.177771, 22.5561451 ], [ 114.1777878, 22.5560541 ], [ 114.1777746, 22.5560138 ], [ 114.1777569, 22.5559394 ], [ 114.1777073, 22.5558223 ], [ 114.1776902, 22.555745 ], [ 114.1776763, 22.5556826 ], [ 114.1777438, 22.5556404 ], [ 114.1778659, 22.5555877 ], [ 114.1779459, 22.5555531 ], [ 114.1782501, 22.5554218 ], [ 114.1784115, 22.5553563 ], [ 114.1784829, 22.5553296 ], [ 114.179443, 22.5549702 ], [ 114.1797758, 22.5548347 ], [ 114.1798963, 22.5547821 ], [ 114.1799947, 22.5547314 ], [ 114.180119, 22.5546672 ], [ 114.1803184, 22.5545643 ], [ 114.1803996, 22.5544886 ], [ 114.1804445, 22.5544467 ], [ 114.1804777, 22.5544249 ], [ 114.180574, 22.5543617 ], [ 114.180679, 22.5543136 ], [ 114.1807742, 22.5542719 ], [ 114.1809778, 22.5541154 ], [ 114.1810658, 22.5541259 ], [ 114.1811119, 22.5541653 ], [ 114.1811513, 22.5542215 ], [ 114.1811586, 22.5542424 ], [ 114.1811696, 22.5542741 ], [ 114.1811743, 22.5543402 ], [ 114.181179, 22.554406 ], [ 114.1811729, 22.5544543 ], [ 114.1811527, 22.5546139 ], [ 114.1811493, 22.5546411 ], [ 114.181155, 22.5546854 ], [ 114.1811854, 22.5549628 ], [ 114.1812389, 22.5550653 ], [ 114.1812199, 22.5551179 ], [ 114.1812502, 22.5551613 ], [ 114.1814631, 22.5553538 ], [ 114.1814741, 22.5553677 ], [ 114.1814896, 22.5553725 ], [ 114.181565, 22.5554083 ], [ 114.1816596, 22.5554369 ], [ 114.1817948, 22.5554483 ], [ 114.1818539, 22.555445 ], [ 114.1819874, 22.5554377 ], [ 114.1820658, 22.555436 ], [ 114.182081, 22.5554357 ], [ 114.1821963, 22.5554177 ], [ 114.182331, 22.5553926 ], [ 114.1823962, 22.5553787 ], [ 114.1824565, 22.5553731 ], [ 114.1825811, 22.555341 ], [ 114.1826637, 22.555292 ], [ 114.1827232, 22.5552695 ], [ 114.1827747, 22.5552722 ], [ 114.1828308, 22.5552689 ], [ 114.1828571, 22.5552653 ], [ 114.1830627, 22.5552375 ], [ 114.1831626, 22.5552361 ], [ 114.1832841, 22.5552203 ], [ 114.1833671, 22.5552202 ], [ 114.1834863, 22.5552169 ], [ 114.1835719, 22.5552105 ], [ 114.1836026, 22.555211 ], [ 114.1836758, 22.5552122 ], [ 114.1837204, 22.5552129 ], [ 114.1837657, 22.5552163 ], [ 114.1838638, 22.5552235 ], [ 114.1839096, 22.5552272 ], [ 114.184039, 22.5552257 ], [ 114.1843048, 22.5552166 ], [ 114.1844152, 22.5551812 ], [ 114.1846543, 22.5551238 ], [ 114.1846734, 22.5551242 ], [ 114.1850491, 22.5550708 ], [ 114.1851882, 22.5550404 ], [ 114.1853086, 22.5550025 ], [ 114.185331, 22.5549954 ], [ 114.1854908, 22.5549266 ], [ 114.1856111, 22.5548817 ], [ 114.1856289, 22.5548756 ], [ 114.1858066, 22.5548145 ], [ 114.1858743, 22.5548059 ], [ 114.1859509, 22.5547852 ], [ 114.1859655, 22.554778 ], [ 114.1859794, 22.5547742 ], [ 114.1860963, 22.5547427 ], [ 114.1861352, 22.5547378 ], [ 114.1862227, 22.5547187 ], [ 114.1862549, 22.5547116 ], [ 114.1863845, 22.5546819 ], [ 114.1864519, 22.5546664 ], [ 114.1865683, 22.5546542 ], [ 114.1865801, 22.5546514 ], [ 114.1866373, 22.5546378 ], [ 114.1866991, 22.554643 ], [ 114.1867059, 22.5546448 ], [ 114.1867701, 22.5546616 ], [ 114.1867773, 22.5546646 ], [ 114.1868054, 22.5546764 ], [ 114.186824, 22.5546877 ], [ 114.1868705, 22.5547421 ], [ 114.1869124, 22.554814 ], [ 114.186987, 22.5549628 ], [ 114.1870213, 22.5550304 ], [ 114.1870477, 22.5550969 ], [ 114.1870705, 22.5551471 ], [ 114.1871335, 22.5552851 ], [ 114.1871872, 22.555371 ], [ 114.1872271, 22.5554514 ], [ 114.1872444, 22.5554862 ], [ 114.1872533, 22.5554945 ], [ 114.1873095, 22.5555512 ], [ 114.1873149, 22.5555567 ], [ 114.1873411, 22.5555756 ], [ 114.1873731, 22.5555988 ], [ 114.1874073, 22.5556125 ], [ 114.1874241, 22.5556193 ], [ 114.1874984, 22.5556363 ], [ 114.1875161, 22.5556403 ], [ 114.1876439, 22.5556629 ], [ 114.1877317, 22.5556697 ], [ 114.1877907, 22.5556661 ], [ 114.1878137, 22.5556647 ], [ 114.1879436, 22.5556425 ], [ 114.1880566, 22.5556313 ], [ 114.1881218, 22.5556237 ], [ 114.1881587, 22.5555818 ], [ 114.1882548, 22.5554889 ], [ 114.1883285, 22.5554128 ], [ 114.1884567, 22.5552615 ], [ 114.1884747, 22.555209 ], [ 114.1884834, 22.5551026 ], [ 114.1884861, 22.5550697 ], [ 114.1885693, 22.5548889 ], [ 114.1885886, 22.55481 ], [ 114.1886839, 22.5546882 ], [ 114.188761, 22.5545699 ], [ 114.1887854, 22.5545444 ], [ 114.188849, 22.5544779 ], [ 114.188958116859709, 22.554378615224834 ], [ 114.172475266506822, 22.542804479395585 ] ] ] } },
{ "type": "Feature", "properties": { "Station code": "LMC", "Station number": 78, "Station name": "Lok Ma Chau", "Lat": 22.51477, "Lng": 114.0657 }, "geometry": { "type": "Polygon", "coordinates": [ [ [ 114.095358266801085, 22.50089616532258 ], [ 114.089530333808653, 22.474156237474993 ], [ 114.062662454902934, 22.474862225284081 ], [ 114.037101341890306, 22.486369194865819 ], [ 114.016433139534882, 22.498770116279072 ], [ 114.013955689695948, 22.501048788342278 ], [ 114.0167327, 22.5019953 ], [ 114.0204882, 22.5038329 ], [ 114.0244719, 22.5065864 ], [ 114.0254086, 22.5067585 ], [ 114.02667, 22.5067174 ], [ 114.031935, 22.5063089 ], [ 114.0340851, 22.5060628 ], [ 114.0372417, 22.5056593 ], [ 114.0408354, 22.5050651 ], [ 114.0431073, 22.5044327 ], [ 114.0433311, 22.5043945 ], [ 114.0436495, 22.5043435 ], [ 114.044136, 22.5042668 ], [ 114.0444246, 22.5042205 ], [ 114.0453395, 22.5040735 ], [ 114.0465514, 22.5037299 ], [ 114.0478327, 22.5031191 ], [ 114.0485289, 22.5027996 ], [ 114.0490133, 22.5026504 ], [ 114.0494791, 22.5025036 ], [ 114.0504116, 22.5023716 ], [ 114.0511124, 22.5023406 ], [ 114.051808, 22.5024284 ], [ 114.0526501, 22.5026117 ], [ 114.0532161, 22.5028074 ], [ 114.0548495, 22.5034987 ], [ 114.055634, 22.5039374 ], [ 114.0563791, 22.5046529 ], [ 114.0568119, 22.5054118 ], [ 114.0569643, 22.5058723 ], [ 114.0570869, 22.5068643 ], [ 114.0571529, 22.5080854 ], [ 114.0573065, 22.5093356 ], [ 114.0576548, 22.5104648 ], [ 114.0580053, 22.5112458 ], [ 114.0584621, 22.5120214 ], [ 114.0595297, 22.5133299 ], [ 114.0608331, 22.5143646 ], [ 114.0625467, 22.5154959 ], [ 114.0636651, 22.5162342 ], [ 114.0638685, 22.5163545 ], [ 114.0640719, 22.5164748 ], [ 114.0644356, 22.5166482 ], [ 114.064786, 22.5167723 ], [ 114.0652651, 22.5168964 ], [ 114.0655228, 22.5169478 ], [ 114.0656996, 22.516973 ], [ 114.0666597, 22.5170793 ], [ 114.0676766, 22.5171754 ], [ 114.0682796, 22.5172324 ], [ 114.0692801, 22.5174039 ], [ 114.070607, 22.517785 ], [ 114.0715235, 22.5180482 ], [ 114.0725554, 22.5183579 ], [ 114.0727797, 22.5184592 ], [ 114.0739075, 22.5191556 ], [ 114.0742373, 22.5195514 ], [ 114.074443, 22.5197746 ], [ 114.0746205, 22.5201714 ], [ 114.0754661, 22.5222312 ], [ 114.0756241, 22.522677 ], [ 114.0764446, 22.5253273 ], [ 114.0768388, 22.5264567 ], [ 114.0775151, 22.5286835 ], [ 114.0775904, 22.5289267 ], [ 114.0776725, 22.529118 ], [ 114.0779302, 22.5295845 ], [ 114.0780946, 22.529794 ], [ 114.078382, 22.5300021 ], [ 114.0789915, 22.5303492 ], [ 114.079277, 22.5305229 ], [ 114.0795624, 22.5306965 ], [ 114.0809885, 22.5311422 ], [ 114.0823923, 22.5314987 ], [ 114.0830209, 22.5316583 ], [ 114.0845277, 22.532095 ], [ 114.085246, 22.5323726 ], [ 114.0859424, 22.5329485 ], [ 114.086222002992201, 22.533297636228429 ], [ 114.095358266801085, 22.50089616532258 ] ] ] } },
{ "type": "Feature", "properties": { "Station code": "ETS", "Station number": 80, "Station name": "East Tsim Sha Tsui", "Lat": 22.29489, "Lng": 114.1734 }, "geometry": { "type": "Polygon", "coordinates": [ [ [ 114.184008518044536, 22.293012791144104 ], [ 114.183264721415185, 22.290993479694716 ], [ 114.177323490518972, 22.286194156686626 ], [ 114.170069391121785, 22.286320314937011 ], [ 114.167379814621412, 22.287711475195824 ], [ 114.164046730954936, 22.292787237124472 ], [ 114.178140388468975, 22.298539750395495 ], [ 114.184008518044536, 22.293012791144104 ] ] ] } },
{ "type": "Feature", "properties": { "Station code": "SYP", "Station number": 81, "Station name": "Sai Ying Pun", "Lat": 22.28533, "Lng": 114.1428 }, "geometry": { "type": "Polygon", "coordinates": [ [ [ 114.14707833468313, 22.264281509813124 ], [ 114.14302540432854, 22.263699109927071 ], [ 114.13456770801821, 22.309433319605247 ], [ 114.138284702521119, 22.308454924756809 ], [ 114.14541180188094, 22.301477084022324 ], [ 114.148981509554133, 22.274265377988929 ], [ 114.14707833468313, 22.264281509813124 ] ] ] } },
{ "type": "Feature", "properties": { "Station code": "HKU", "Station number": 82, "Station name": "HKU", "Lat": 22.28398, "Lng": 114.1355 }, "geometry": { "type": "Polygon", "coordinates": [ [ [ 114.13456770801821, 22.309433319605247 ], [ 114.14302540432854, 22.263699109927071 ], [ 114.140133353958547, 22.262756202993785 ], [ 114.120696286645668, 22.311533634273196 ], [ 114.130747422281118, 22.311064918752045 ], [ 114.13456770801821, 22.309433319605247 ] ] ] } },
{ "type": "Feature", "properties": { "Station code": "KET", "Station number": 83, "Station name": "Kennedy Town", "Lat": 22.28135, "Lng": 114.1289 }, "geometry": { "type": "Polygon", "coordinates": [ [ [ 114.140133353958547, 22.262756202993785 ], [ 114.054273914192308, 22.218119114474824 ], [ 114.092855257724281, 22.312793099481521 ], [ 114.095873585916877, 22.313635769993674 ], [ 114.105348966914946, 22.314016931029055 ], [ 114.120696286645668, 22.311533634273196 ], [ 114.140133353958547, 22.262756202993785 ] ] ] } },
{ "type": "Feature", "properties": { "Station code": "HOM", "Station number": 84, "Station name": "Ho Man Tin", "Lat": 22.3094, "Lng": 114.1827 }, "geometry": { "type": "Polygon", "coordinates": [ [ [ 114.192974631294618, 22.318639700945401 ], [ 114.185238287343509, 22.305807784295734 ], [ 114.177097976699812, 22.307460639248767 ], [ 114.176142284643689, 22.309855311826741 ], [ 114.178274073638192, 22.316320135594538 ], [ 114.187097072170957, 22.323249551238462 ], [ 114.192974631294618, 22.318639700945401 ] ] ] } },
{ "type": "Feature", "properties": { "Station code": "WHA", "Station number": 85, "Station name": "Whampoa", "Lat": 22.30524, "Lng": 114.1896 }, "geometry": { "type": "Polygon", "coordinates": [ [ [ 114.187451616081987, 22.295563234134807 ], [ 114.185238287343509, 22.305807784295734 ], [ 114.192974631294618, 22.318639700945401 ], [ 114.200899179684058, 22.315572733429544 ], [ 114.204198732088145, 22.311104019559998 ], [ 114.205918940034167, 22.306452678184417 ], [ 114.193644498982721, 22.29685925600883 ], [ 114.187451616081987, 22.295563234134807 ] ] ] } },
{ "type": "Feature", "properties": { "Station code": "OCP", "Station number": 86, "Station name": "Ocean Park", "Lat": 22.24883, "Lng": 114.1745 }, "geometry": { "type": "Polygon", "coordinates": [ [ [ 114.173454059555013, 22.221543664407644 ], [ 114.170145931095945, 22.263057433305601 ], [ 114.182793153393774, 22.26367201543739 ], [ 114.193878773302401, 22.260000122407721 ], [ 114.206490301403434, 22.253439865637667 ], [ 114.206583848686932, 22.253303537584287 ], [ 114.232288888795651, 22.150450464165921 ], [ 114.223640358492759, 22.148468994013875 ], [ 114.198480104494507, 22.148469184678554 ], [ 114.173454059555013, 22.221543664407644 ] ] ] } },
{ "type": "Feature", "properties": { "Station code": "WCH", "Station number": 87, "Station name": "Wong Chuk Hang", "Lat": 22.24832, "Lng": 114.1681 }, "geometry": { "type": "Polygon", "coordinates": [ [ [ 114.170145931095945, 22.263057433305601 ], [ 114.173454059555013, 22.221543664407644 ], [ 114.153928123683642, 22.26219493021495 ], [ 114.167230699928268, 22.263554573682082 ], [ 114.170145931095945, 22.263057433305601 ] ] ] } },
{ "type": "Feature", "properties": { "Station code": "LET", "Station number": 88, "Station name": "Lei Tung", "Lat": 22.24246, "Lng": 114.1559 }, "geometry": { "type": "Polygon", "coordinates": [ [ [ 114.173454059555013, 22.221543664407644 ], [ 114.198480104494507, 22.148469184678554 ], [ 114.146747974602334, 22.1484695767052 ], [ 114.153576796303355, 22.262283271722563 ], [ 114.153928123683642, 22.26219493021495 ], [ 114.173454059555013, 22.221543664407644 ] ] ] } },
{ "type": "Feature", "properties": { "Station code": "SOH", "Station number": 89, "Station name": "South Horizons", "Lat": 22.24288, "Lng": 114.1489 }, "geometry": { "type": "Polygon", "coordinates": [ [ [ 114.153576796303355, 22.262283271722563 ], [ 114.146747974602334, 22.1484695767052 ], [ 114.088578811559501, 22.148470017511748 ], [ 114.065015975, 22.154444077359685 ], [ 114.025295079424779, 22.176697976374182 ], [ 114.054273914192308, 22.218119114474824 ], [ 114.140133353958547, 22.262756202993785 ], [ 114.14302540432854, 22.263699109927071 ], [ 114.14707833468313, 22.264281509813124 ], [ 114.151739155654383, 22.263110389822884 ], [ 114.153576796303355, 22.262283271722563 ] ] ] } },
{ "type": "Feature", "properties": { "Station code": "HIK", "Station number": 90, "Station name": "Hin Keng", "Lat": 22.36393, "Lng": 114.1708 }, "geometry": { "type": "Polygon", "coordinates": [ [ [ 114.182786336112386, 22.353470257558943 ], [ 114.180219086983897, 22.351858263920121 ], [ 114.166115263182292, 22.348376479857091 ], [ 114.155539614880183, 22.353809430779354 ], [ 114.151117488318718, 22.357502743609093 ], [ 114.150576686612865, 22.385315402766789 ], [ 114.151109408787846, 22.388892921185196 ], [ 114.18624853205624, 22.358405139039082 ], [ 114.18684091695043, 22.357577542495726 ], [ 114.182786336112386, 22.353470257558943 ] ] ] } },
{ "type": "Feature", "properties": { "Station code": "KAT", "Station number": 91, "Station name": "Kai Tak", "Lat": 22.33082, "Lng": 114.1995 }, "geometry": { "type": "Polygon", "coordinates": [ [ [ 114.203828339277678, 22.334695645886409 ], [ 114.206460606986894, 22.326413432844952 ], [ 114.200899179684058, 22.315572733429544 ], [ 114.192974631294618, 22.318639700945401 ], [ 114.187097072170957, 22.323249551238462 ], [ 114.186951987175561, 22.323705484226334 ], [ 114.193195503876822, 22.334381812374872 ], [ 114.196815305782707, 22.336426330118005 ], [ 114.203828339277678, 22.334695645886409 ] ] ] } },
{ "type": "Feature", "properties": { "Station code": "CKT", "Station number": 96, "Station name": "Che Kung Temple", "Lat": 22.37481, "Lng": 114.186 }, "geometry": { "type": "Polygon", "coordinates": [ [ [ 114.18684091695043, 22.357577542495726 ], [ 114.18624853205624, 22.358405139039082 ], [ 114.180873597488343, 22.379449856394881 ], [ 114.189988294476137, 22.377977765360519 ], [ 114.194672544541817, 22.359323672178647 ], [ 114.18684091695043, 22.357577542495726 ] ] ] } },
{ "type": "Feature", "properties": { "Station code": "STW", "Station number": 97, "Station name": "Sha Tin Wai", "Lat": 22.37707, "Lng": 114.195 }, "geometry": { "type": "Polygon", "coordinates": [ [ [ 114.194672544541817, 22.359323672178647 ], [ 114.189988294476137, 22.377977765360519 ], [ 114.195220002845531, 22.385870865028064 ], [ 114.212129084586564, 22.361132965751121 ], [ 114.200800865872822, 22.359047076575557 ], [ 114.194672544541817, 22.359323672178647 ] ] ] } },
{ "type": "Feature", "properties": { "Station code": "CIO", "Station number": 98, "Station name": "City One", "Lat": 22.38288, "Lng": 114.2035 }, "geometry": { "type": "Polygon", "coordinates": [ [ [ 114.212129084586564, 22.361132965751121 ], [ 114.195220002845531, 22.385870865028064 ], [ 114.195181745557036, 22.386845230344509 ], [ 114.201758722479127, 22.389507340051068 ], [ 114.230099829517044, 22.361395715661281 ], [ 114.224162639072759, 22.360654326475817 ], [ 114.212129084586564, 22.361132965751121 ] ] ] } },
{ "type": "Feature", "properties": { "Station code": "SHM", "Station number": 99, "Station name": "Shek Mun", "Lat": 22.38782, "Lng": 114.2084 }, "geometry": { "type": "Polygon", "coordinates": [ [ [ 114.201758722479127, 22.389507340051068 ], [ 114.205147916420032, 22.393931875221977 ], [ 114.214929942321717, 22.398181570518915 ], [ 114.25353277133388, 22.37064966836056 ], [ 114.241646280991674, 22.361653305208961 ], [ 114.230099829517044, 22.361395715661281 ], [ 114.201758722479127, 22.389507340051068 ] ] ] } },
{ "type": "Feature", "properties": { "Station code": "TSH", "Station number": 100, "Station name": "Tai Shui Hang", "Lat": 22.40773, "Lng": 114.2226 }, "geometry": { "type": "Polygon", "coordinates": [ [ [ 114.212988897181447, 22.403455858693167 ], [ 114.218277130208051, 22.414774850616546 ], [ 114.246093358435871, 22.405810636441572 ], [ 114.273372264494768, 22.378848191009812 ], [ 114.25353277133388, 22.37064966836056 ], [ 114.214929942321717, 22.398181570518915 ], [ 114.212988897181447, 22.403455858693167 ] ] ] } },
{ "type": "Feature", "properties": { "Station code": "HEO", "Station number": 101, "Station name": "Heng On", "Lat": 22.41797, "Lng": 114.2259 }, "geometry": { "type": "Polygon", "coordinates": [ [ [ 114.218277130208051, 22.414774850616546 ], [ 114.212446657082793, 22.43571154956631 ], [ 114.245145835456469, 22.407318630573261 ], [ 114.246093358435871, 22.405810636441572 ], [ 114.218277130208051, 22.414774850616546 ] ] ] } },
{ "type": "Feature", "properties": { "Station code": "MOS", "Station number": 102, "Station name": "Ma On Shan", "Lat": 22.42488, "Lng": 114.2319 }, "geometry": { "type": "Polygon", "coordinates": [ [ [ 114.205730386895183, 22.44865714550707 ], [ 114.217082300812692, 22.483855543238153 ], [ 114.245145835456469, 22.407318630573261 ], [ 114.212446657082793, 22.43571154956631 ], [ 114.205730386895183, 22.44865714550707 ] ] ] } },
{ "type": "Feature", "properties": { "Station code": "WKS", "Station number": 103, "Station name": "Wu Kai Sha", "Lat": 22.42928, "Lng": 114.2439 }, "geometry": { "type": "Polygon", "coordinates": [ [ [ 114.246093358435871, 22.405810636441572 ], [ 114.245145835456469, 22.407318630573261 ], [ 114.217082300812692, 22.483855543238153 ], [ 114.223538447607666, 22.514645104726206 ], [ 114.244541955291865, 22.54976780395334 ], [ 114.254711525, 22.550652844218568 ], [ 114.317943375, 22.53943038397944 ], [ 114.381175225, 22.511482503700417 ], [ 114.418904009539176, 22.484827118441469 ], [ 114.422092123593913, 22.46531621785714 ], [ 114.423787928818015, 22.420201310714287 ], [ 114.422245841387166, 22.402722187376334 ], [ 114.332595080619996, 22.386561084705502 ], [ 114.273372264494768, 22.378848191009812 ], [ 114.246093358435871, 22.405810636441572 ] ] ] } },
{ "type": "Feature", "properties": { "Station code": "AUS", "Station number": 111, "Station name": "Austin", "Lat": 22.30424, "Lng": 114.1666 }, "geometry": { "type": "Polygon", "coordinates": [ [ [ 114.169657990244033, 22.301260389292761 ], [ 114.163742937363651, 22.296092792392574 ], [ 114.164287142435427, 22.310700402214014 ], [ 114.168511554548587, 22.30885366467821 ], [ 114.169657990244033, 22.301260389292761 ] ] ] } },
{ "type": "Feature", "properties": { "Station code": "TWW", "Station number": 114, "Station name": "Tsuen Wan West", "Lat": 22.36853, "Lng": 114.1097 }, "geometry": { "type": "Polygon", "coordinates": [ [ [ 114.118170782959822, 22.363983252574201 ], [ 114.118428147392734, 22.362209524725809 ], [ 114.117867539177325, 22.361337788583295 ], [ 114.058180608950323, 22.374836307710378 ], [ 114.055749526384972, 22.380210629770012 ], [ 114.092203985167259, 22.405550656155171 ], [ 114.118170782959822, 22.363983252574201 ] ] ] } },
{ "type": "Feature", "properties": { "Station code": "KSR", "Station number": 115, "Station name": "Kam Sheung Road", "Lat": 22.43485, "Lng": 114.0636 }, "geometry": { "type": "Polygon", "coordinates": [ [ [ 114.092203985167259, 22.405550656155171 ], [ 114.055749526384972, 22.380210629770012 ], [ 114.030678872063675, 22.388667436467294 ], [ 114.029950941221813, 22.391343466949319 ], [ 114.062662454902934, 22.474862225284081 ], [ 114.089530333808653, 22.474156237474993 ], [ 114.103120950979644, 22.460938583561713 ], [ 114.11122694170372, 22.450321912766835 ], [ 114.115245397287893, 22.425936626395764 ], [ 114.092203985167259, 22.405550656155171 ] ] ] } },
{ "type": "Feature", "properties": { "Station code": "YUL", "Station number": 116, "Station name": "Yuen Long", "Lat": 22.44613, "Lng": 114.0348 }, "geometry": { "type": "Polygon", "coordinates": [ [ [ 114.037101341890306, 22.486369194865819 ], [ 114.062662454902934, 22.474862225284081 ], [ 114.029950941221813, 22.391343466949319 ], [ 114.022487748133159, 22.403499425389167 ], [ 114.037101341890306, 22.486369194865819 ] ] ] } },
{ "type": "Feature", "properties": { "Station code": "LOP", "Station number": 117, "Station name": "Long Ping", "Lat": 22.44777, "Lng": 114.0255 }, "geometry": { "type": "Polygon", "coordinates": [ [ [ 114.014130222151678, 22.41432981222836 ], [ 114.016433139534882, 22.498770116279072 ], [ 114.037101341890306, 22.486369194865819 ], [ 114.022487748133159, 22.403499425389167 ], [ 114.014130222151678, 22.41432981222836 ] ] ] } },
{ "type": "Feature", "properties": { "Station code": "TIS", "Station number": 118, "Station name": "Tin Shui Wai", "Lat": 22.44834, "Lng": 114.0046 }, "geometry": { "type": "MultiPolygon", "coordinates": [ [ [ [ 113.938762320743422, 22.467353493208162 ], [ 113.9478056, 22.4723583 ], [ 113.9541818, 22.4773441 ], [ 113.9544653, 22.4775747 ], [ 113.9865927, 22.5032962 ], [ 113.9927178, 22.5081875 ], [ 113.9950593, 22.510069 ], [ 113.9952237, 22.5101629 ], [ 113.9959594, 22.510229 ], [ 113.9965466, 22.5102088 ], [ 113.9971593, 22.5101701 ], [ 113.9975706, 22.5101079 ], [ 113.9980992, 22.5099926 ], [ 113.9985121, 22.5098573 ], [ 113.9995168, 22.5093559 ], [ 114.0001192, 22.5090181 ], [ 114.0017119, 22.5079566 ], [ 114.0025695, 22.507246 ], [ 114.0033995, 22.5065099 ], [ 114.0043329, 22.5055224 ], [ 114.0050738, 22.5045985 ], [ 114.0075793, 22.5024028 ], [ 114.0086078, 22.5017861 ], [ 114.0098906, 22.5011386 ], [ 114.0111627, 22.500729 ], [ 114.0119473, 22.5006432 ], [ 114.0134549, 22.5008781 ], [ 114.013955689695948, 22.501048788342278 ], [ 114.016433139534882, 22.498770116279072 ], [ 114.014130222151678, 22.41432981222836 ], [ 113.938762320743422, 22.467353493208162 ] ] ], [ [ [ 113.9417379, 22.4947278 ], [ 113.941834, 22.4947311 ], [ 113.9423112, 22.4947472 ], [ 113.942382, 22.4947591 ], [ 113.9426683, 22.4948614 ], [ 113.9436854, 22.4952247 ], [ 113.9438894, 22.4952976 ], [ 113.9440892, 22.495369 ], [ 113.9441668, 22.4953967 ], [ 113.944295, 22.4954515 ], [ 113.9443971, 22.4955222 ], [ 113.945043, 22.4955322 ], [ 113.9458214, 22.4955441 ], [ 113.9458441, 22.4959395 ], [ 113.9457805, 22.5000692 ], [ 113.9457529, 22.5002461 ], [ 113.9457111, 22.5004058 ], [ 113.9456371, 22.5005268 ], [ 113.9455592, 22.5006461 ], [ 113.9454281, 22.5007725 ], [ 113.9453066, 22.500862 ], [ 113.9450236, 22.5010304 ], [ 113.9447621, 22.5012247 ], [ 113.944538, 22.5014212 ], [ 113.9436359, 22.5022924 ], [ 113.9435077, 22.5024174 ], [ 113.9434175, 22.5025249 ], [ 113.9433344, 22.5026499 ], [ 113.9432679, 22.5027859 ], [ 113.9431777, 22.5030227 ], [ 113.9431397, 22.5033254 ], [ 113.9431232, 22.5038408 ], [ 113.9431744, 22.5038416 ], [ 113.9436563, 22.5038527 ], [ 113.9458272, 22.5038815 ], [ 113.9463019, 22.5038877 ], [ 113.9463422, 22.5008343 ], [ 113.9461591, 22.5008083 ], [ 113.9463396, 22.4914016 ], [ 113.9460077, 22.4911994 ], [ 113.9459113, 22.4911407 ], [ 113.945591, 22.4909452 ], [ 113.9454857, 22.4908815 ], [ 113.9453829, 22.4908185 ], [ 113.9452165, 22.4907174 ], [ 113.9451788, 22.4906948 ], [ 113.945042, 22.4906111 ], [ 113.9402962, 22.4905313 ], [ 113.9402451, 22.4947066 ], [ 113.9407498, 22.4947139 ], [ 113.9417379, 22.4947278 ] ] ] ] } },
{ "type": "Feature", "properties": { "Station code": "SIH", "Station number": 119, "Station name": "Siu Hong", "Lat": 22.41181, "Lng": 113.9789 }, "geometry": { "type": "Polygon", "coordinates": [ [ [ 114.029950941221813, 22.391343466949319 ], [ 114.030678872063675, 22.388667436467294 ], [ 114.026751607266576, 22.386207668963156 ], [ 113.881305716844082, 22.43555538178499 ], [ 113.938762320743422, 22.467353493208162 ], [ 114.014130222151678, 22.41432981222836 ], [ 114.022487748133159, 22.403499425389167 ], [ 114.029950941221813, 22.391343466949319 ] ] ] } },
{ "type": "Feature", "properties": { "Station code": "TUM", "Station number": 120, "Station name": "Tuen Mun", "Lat": 22.39501, "Lng": 113.9732 }, "geometry": { "type": "Polygon", "coordinates": [ [ [ 114.026751607266576, 22.386207668963156 ], [ 113.983164344674861, 22.347689336004919 ], [ 113.8691111, 22.396109639824715 ], [ 113.8691111, 22.4 ], [ 113.8691111, 22.4288056 ], [ 113.8742257, 22.4316371 ], [ 113.881305716844082, 22.43555538178499 ], [ 114.026751607266576, 22.386207668963156 ] ] ] } }
]
}
